
 PEER Ground Motion Database, Time Series Search Report -- NGA-West2 -- 2019-12-30


 -- Summary of PEER Ground Motion Database Search Criteria --
Magnitude Min:, 5.7
Magnitude Max:, 5.8
Rrup Min (km):, 30.0
Rrup Max (km):, 50.0
Rjb Min (km):, 30.0
Rjb Max (km):, 50.0
Vs30 Min (m/sec):, 400.0
Vs30 Max (m/sec):, 800.0
D9-95 Min (sec):, 5.0
D9-95 Max (sec):, 95.0
Scale Factor Min:, 0.1
Scale Factor Max:, 10.0
Period Array:, 0.1,1,10
Weight Array:, 1,1,1
Record Sequence Number:, 
Earthquake Name:, 
Station Name:, 
User-Defined Maximum Number of Records:, 100
Pulse:, 1
Damping Ratio:, 0.05
Scaling Method:, Minimize MSE
Suite Average:, Arithmetic
Single-Period-Scaling Period (sec):, 
Component:, RotD50
Fault Type:, All Types


 -- Summary of Metadata of Selected Records --
Result ID, Spectral Ordinate, Record Sequence Number, Mean Squared Error, Scale Factor, Tp-Pulse Period (sec), 5-75% Duration (sec), 5-95% Duration (sec), Arias Intensity (m/sec), Earthquake Name, Year, Station Name, Magnitude, Mechanism, Rjb (km), Rrup (km), Vs30 (m/sec), Lowest Useable Frequency (Hz), Initial-search Scale Factor, Horizontal-1 Acc. Filename, Horizontal-2 Acc. Filename, Vertical Acc. Filename
1, RotD50, 481, 0.2322, 0.8917, -, 7.7, 14.2, 0.0, "Lazio-Abruzzo_ Italy", 1984, "Roccamonfina", 5.8, Normal, 45.47, 47.59, 475.1, 0.5, 0.9561, RSN481_ABRUZZO_ROC-NS.AT2, RSN481_ABRUZZO_ROC-WE.AT2 , RSN481_ABRUZZO_ROC-UP.AT2  
2, RotD50, 4329, 0.146, 0.5731, -, 5.0, 10.2, 0.1, "Potenza_ Italy", 1990, "Rionero In Vulture", 5.8, strike slip, 34.5, 34.74, 574.88, 0.3, 0.6145, RSN4329_POTENZA.P_A-VLT000.AT2, RSN4329_POTENZA.P_A-VLT270.AT2 , RSN4329_POTENZA.P_A-VLT-UP.AT2  
3, RotD50, 4338, 0.3425, 0.7715, -, 16.5, 28.7, 0.0, "Umbria Marche (foreshock)_ Italy", 1997, "Gubbio-Piana", 5.7, Normal, 38.81, 39.02, 492.0, 0.15, 0.8272, RSN4338_UBMARCHE.P_B-GBP000.AT2, RSN4338_UBMARCHE.P_B-GBP090.AT2 , RSN4338_UBMARCHE.P_B-GBP-UP.AT2  
4, RotD50, 4426, 0.2677, 4.2039, -, 28.0, 50.4, 0.0, "Molise-01_ Italy", 2002, "Castiglione Messer Marino", 5.7, strike slip, 31.72, 34.29, 519.0, 0.025, 4.5074, RSN4426_MOLISE.P_A-CMM000.AT2, RSN4426_MOLISE.P_A-CMM270.AT2 ,  -----   
5, RotD50, 4431, 0.5069, 3.707, -, 22.0, 36.5, 0.0, "Molise-01_ Italy", 2002, "San Marco dei Cavoti", 5.7, strike slip, 43.94, 45.55, 519.0, 0.03, 3.9747, RSN4431_MOLISE.P_A-SMC000.AT2, RSN4431_MOLISE.P_A-SMC270.AT2 ,  -----   
6, RotD50, 4434, 0.2586, 3.5578, -, 24.9, 48.2, 0.0, "Molise-02_ Italy", 2002, "Castiglione Messer Marino", 5.7, strike slip, 40.5, 42.81, 519.0, 0.035, 3.8147, RSN4434_MOLISE.P_B-CMM000.AT2, RSN4434_MOLISE.P_B-CMM270.AT2 ,  -----   

 These records were obtained from the NGA-West2 On-Line Ground-Motion Database Tool
 These records are UNSCALED, AS RECORDED
 Filename Extension: 
   ,AT2 = Acceleration
   ,VT2 = Velocity
   ,DT2 = Displacement
 The users of the NGA-West2 databases, flatfiles, models and reports are requested to acknowledge the Pacific Earthquake Engineering Research Center (PEER) in their work and publications.

 -- Scaled Spectra used in Search & Scaling --
Period (sec),Target pSa (g),Arithmetic Mean pSa (g),Arithmetic Mean + Sigma pSa (g),Arithmetic Mean - Sigma pSa (g),RSN-481 RotD50 pSa (g),RSN-4329 RotD50 pSa (g),RSN-4338 RotD50 pSa (g),RSN-4426 RotD50 pSa (g),RSN-4431 RotD50 pSa (g),RSN-4434 RotD50 pSa (g)
0.01,0.059,0.02965502,0.04345107,0.02023931,0.03268256,0.05284947,0.02609872,0.02575526,0.01719765,0.02334643
0.02,0.063,0.03017301,0.0447063,0.02036426,0.03269813,0.05472803,0.02640999,0.02618993,0.0174948,0.0235172
0.022,0.065,0.03051239,0.04573542,0.02035634,0.03285596,0.05622063,0.02648927,0.02633853,0.01758871,0.02358124
0.025,0.068,0.03092289,0.04683267,0.0204179,0.03342746,0.05766818,0.02652636,0.02658716,0.01763755,0.0236906
0.029,0.072,0.03162603,0.04828861,0.02071308,0.03312505,0.05996953,0.02689389,0.02717084,0.01867866,0.02391823
0.03,0.074,0.03173112,0.04838139,0.02081098,0.03299924,0.06016593,0.02704328,0.02716925,0.01897398,0.02403505
0.032,0.076,0.03202923,0.04869706,0.0210664,0.03311561,0.06058677,0.02726102,0.02762155,0.01933398,0.02425645
0.035,0.08,0.0327951,0.05110939,0.02104347,0.03352543,0.06399991,0.0272301,0.0279292,0.01978205,0.02430393
0.036,0.081,0.033209,0.0525371,0.0209916,0.03347755,0.06609046,0.0271783,0.02772483,0.02009967,0.02468321
0.04,0.087,0.03449782,0.05622914,0.02116517,0.03392234,0.07103026,0.02845402,0.02835498,0.02011041,0.02511488
0.042,0.09,0.03403402,0.05472483,0.02116616,0.03383453,0.06863424,0.02863445,0.02923914,0.0183636,0.02549818
0.044,0.093,0.03513649,0.05751108,0.0214667,0.03427196,0.0724391,0.02892044,0.03005674,0.01897987,0.02615086
0.045,0.094,0.03619338,0.06104275,0.02145973,0.03463706,0.07716575,0.02923362,0.03033783,0.01903872,0.0267473
0.046,0.095,0.03692161,0.06306859,0.02161464,0.03486933,0.0798559,0.02983845,0.03046593,0.01927558,0.02722446
0.048,0.098,0.03831803,0.0683324,0.02148719,0.03487265,0.08674206,0.03054168,0.03093584,0.01943728,0.02737864
0.05,0.101,0.04042232,0.0757337,0.02157512,0.03549641,0.09603364,0.0313275,0.03246817,0.01936575,0.02784243
0.055,0.107,0.04253272,0.07863704,0.02300484,0.03512857,0.09995061,0.03215144,0.03679664,0.0215357,0.02963336
0.06,0.113,0.04570263,0.08876255,0.02353166,0.03609515,0.11283992,0.0314099,0.03749729,0.02386484,0.03250865
0.065,0.118,0.04755583,0.08985597,0.02516868,0.0375116,0.11432619,0.03498496,0.0414892,0.02580805,0.03121496
0.067,0.12,0.04754474,0.08564479,0.02639392,0.03776237,0.10922534,0.03862212,0.04084558,0.02664696,0.03216606
0.07,0.123,0.04861134,0.08985662,0.02629814,0.03919455,0.11412823,0.04331792,0.0387871,0.02639128,0.02984893
0.075,0.126,0.0521501,0.09855192,0.02759594,0.04086746,0.12459023,0.04584303,0.04453789,0.02523997,0.03182203
0.08,0.13,0.05744413,0.11147666,0.02960107,0.04309021,0.14080408,0.04926709,0.04798137,0.02573995,0.03778208
0.085,0.132,0.06064695,0.11084884,0.03318079,0.04451763,0.14016059,0.05475485,0.05327759,0.02854628,0.04262474
0.09,0.134,0.0602045,0.10688871,0.03390987,0.04258375,0.13482774,0.05515034,0.05746238,0.03093799,0.0402648
0.095,0.136,0.06262548,0.10682179,0.03671489,0.04279544,0.13569819,0.05848667,0.05497566,0.03730349,0.04649342
0.1,0.137,0.06724934,0.1217342,0.0371504,0.04342647,0.15532409,0.05659395,0.05758627,0.03984221,0.05072304
0.11,0.138,0.07106047,0.12293312,0.04107592,0.04696773,0.157089,0.05300919,0.06293772,0.04649179,0.05986741
0.12,0.138,0.07531863,0.1422095,0.03989112,0.05998416,0.18129157,0.05165002,0.05621799,0.04105548,0.06171257
0.13,0.137,0.07352518,0.1248134,0.04331227,0.05703529,0.15841628,0.06243191,0.06800861,0.04020157,0.0550574
0.133,0.136,0.07282979,0.12069748,0.04394606,0.0583802,0.15214553,0.06255755,0.07256814,0.04118934,0.05013799
0.14,0.135,0.07245113,0.11807543,0.04445604,0.06386757,0.1471569,0.06120519,0.07560549,0.03906737,0.04780423
0.15,0.133,0.07188414,0.11069369,0.04668134,0.0688334,0.13690838,0.05542073,0.07581938,0.04316504,0.05115791
0.16,0.13,0.0719306,0.09785859,0.05287232,0.07918187,0.11665493,0.06268045,0.06779228,0.04807992,0.05719412
0.17,0.127,0.07472282,0.1007319,0.05542932,0.0851574,0.11129715,0.08910755,0.06125621,0.04914313,0.05237551
0.18,0.123,0.07516461,0.10360922,0.05452911,0.08165334,0.11270427,0.0980054,0.05540206,0.04855924,0.05466337
0.19,0.12,0.07706579,0.10253937,0.05792054,0.08506626,0.11458604,0.08991585,0.05789811,0.04928997,0.06563849
0.2,0.117,0.07509539,0.09820788,0.05742226,0.08948244,0.10870925,0.07168984,0.05979213,0.04588073,0.07501796
0.22,0.11,0.07420482,0.09566669,0.0575577,0.09046008,0.10845679,0.05583849,0.06607378,0.06096005,0.06343971
0.24,0.104,0.06312852,0.07953938,0.05010361,0.07377166,0.09004258,0.05478621,0.05894114,0.0550221,0.04620744
0.25,0.101,0.06343946,0.08062267,0.04991853,0.0803994,0.08719924,0.0577974,0.05868638,0.05151463,0.04503973
0.26,0.098,0.06692021,0.08687837,0.05154695,0.09465605,0.08657494,0.05777555,0.0624494,0.05071854,0.0493468
0.28,0.093,0.06617766,0.09181305,0.04770001,0.09830935,0.09494249,0.05031784,0.05150586,0.04717633,0.05481411
0.29,0.091,0.06730851,0.09666512,0.04686732,0.1028298,0.10035563,0.04809819,0.04890299,0.04861166,0.05505277
0.3,0.088,0.06696376,0.09306443,0.04818323,0.1007472,0.09480999,0.04731627,0.05047549,0.05146833,0.05696528
0.32,0.084,0.06110575,0.08361137,0.04465795,0.08692197,0.08587247,0.03939172,0.04199765,0.05182227,0.06062842
0.34,0.08,0.0579806,0.07828816,0.04294072,0.08458614,0.07538732,0.03837339,0.04495218,0.04256895,0.06201562
0.35,0.078,0.05890087,0.07855544,0.04416387,0.08129291,0.07591424,0.03621,0.04856802,0.0436048,0.06781524
0.36,0.076,0.05949889,0.078507,0.04509302,0.07699701,0.07776775,0.03494618,0.05129247,0.04538847,0.07060145
0.38,0.073,0.0581498,0.07516138,0.04498851,0.06667284,0.080044,0.0374803,0.04775566,0.04732524,0.06962073
0.4,0.07,0.05734747,0.07233562,0.04546492,0.06960192,0.06597188,0.0420798,0.04237839,0.04902095,0.0750319
0.42,0.067,0.05588511,0.07131172,0.04379569,0.06813433,0.06427191,0.04199778,0.03911818,0.04731271,0.07447578
0.44,0.065,0.05511991,0.06807328,0.04463138,0.06502834,0.06322849,0.0440817,0.03996215,0.04773817,0.07068061
0.45,0.064,0.05459824,0.06547464,0.04552859,0.0631952,0.06287809,0.04516716,0.04151493,0.04814954,0.06668453
0.46,0.063,0.05370694,0.06421493,0.04491845,0.06507601,0.0606987,0.0461113,0.04078881,0.04619286,0.06337393
0.48,0.06,0.05281828,0.06652275,0.0419371,0.06808912,0.0576029,0.047455,0.03629283,0.0408675,0.06660234
0.5,0.058,0.05583015,0.07114451,0.04381231,0.07127907,0.06709869,0.05222254,0.03573553,0.04183496,0.06681008
0.55,0.054,0.06170094,0.08777307,0.04337328,0.07763165,0.10223831,0.0547031,0.04009817,0.043493,0.05204143
0.6,0.05,0.05551321,0.07184674,0.04289292,0.07454765,0.07334651,0.05275933,0.05424418,0.03836696,0.03981463
0.65,0.046,0.05158082,0.0704876,0.03774538,0.07889788,0.06656804,0.04892147,0.04430688,0.03640729,0.03438338
0.667,0.045,0.05024101,0.06930227,0.03642245,0.07772177,0.06550153,0.04590247,0.04404628,0.03533859,0.0329354
0.7,0.043,0.04554635,0.06473063,0.03204774,0.07488653,0.05889803,0.03995808,0.03518641,0.03331147,0.03103758
0.75,0.04,0.0434763,0.0639496,0.02955747,0.07431679,0.05735102,0.03745189,0.03190375,0.02802422,0.03181013
0.8,0.037,0.04342044,0.06136027,0.03072566,0.06993527,0.05700376,0.03255897,0.03994025,0.02920215,0.03188225
0.85,0.034,0.04318536,0.05769033,0.03232735,0.06447943,0.05373906,0.03223919,0.04470449,0.0317452,0.03220479
0.9,0.032,0.04240203,0.05478027,0.0328208,0.05818519,0.05178383,0.03218266,0.04872461,0.03169533,0.03184056
0.95,0.03,0.03931026,0.0477339,0.03237315,0.0513681,0.04615282,0.03340126,0.0416075,0.03132085,0.03201105
1.0,0.028,0.03724509,0.04342254,0.03194646,0.04402915,0.04379789,0.03295119,0.04061765,0.03075458,0.03132005
1.1,0.025,0.03523148,0.03965609,0.03130054,0.0427246,0.03599457,0.0354846,0.03565626,0.03268177,0.02884705
1.2,0.022,0.03176323,0.03870499,0.02606648,0.03987343,0.02873786,0.03899063,0.03250334,0.02867281,0.02180132
1.3,0.02,0.03089535,0.04319418,0.0220984,0.03150824,0.02429854,0.05244159,0.02849009,0.02893411,0.01969951
1.4,0.018,0.03324145,0.05181784,0.02132458,0.03180807,0.02135086,0.06384631,0.03641019,0.02494021,0.02109305
1.5,0.016,0.03177667,0.04601593,0.02194363,0.03080779,0.0184211,0.05472623,0.03651982,0.02761388,0.02257117
1.6,0.015,0.0304091,0.04485932,0.02061362,0.02522599,0.01588473,0.05334619,0.03351935,0.03198048,0.02249783
1.7,0.013,0.02529098,0.03384681,0.0188979,0.02112565,0.01385361,0.03711326,0.02707812,0.0303352,0.02224004
1.8,0.012,0.02021065,0.02649136,0.015419,0.01751233,0.01214571,0.02910506,0.02030185,0.02473601,0.01746295
1.9,0.011,0.01694514,0.0221066,0.01298878,0.01468098,0.01033686,0.02467972,0.0164939,0.02016027,0.0153191
2.0,0.01,0.01543971,0.0204635,0.01164925,0.01221575,0.00923819,0.02240413,0.01509846,0.01930088,0.01438082
2.2,0.009,0.01365127,0.01956717,0.00952398,0.00838882,0.00715384,0.01749836,0.01610371,0.02081402,0.01194889
2.4,0.008,0.01122743,0.01643193,0.00767136,0.00639035,0.00549081,0.01520452,0.01225939,0.01725335,0.01076616
2.5,0.007,0.01023721,0.0146521,0.00715259,0.00582178,0.00509595,0.01334956,0.01150343,0.01508621,0.01056632
2.6,0.007,0.00927575,0.01334847,0.00644565,0.00536706,0.00469721,0.01126729,0.01080297,0.01435964,0.00916032
2.8,0.006,0.00809843,0.01161385,0.0056471,0.00480656,0.0037309,0.00895102,0.01024555,0.01201621,0.00884036
3.0,0.006,0.00796254,0.0124491,0.00509289,0.00419054,0.00316302,0.0076682,0.00944697,0.01379567,0.00951081
3.2,0.005,0.00700376,0.01068273,0.00459177,0.00394773,0.00272763,0.0062789,0.00889519,0.01101478,0.00915833
3.4,0.005,0.00629942,0.01004971,0.00394865,0.00345383,0.0024078,0.0055904,0.00674959,0.01112509,0.00846983
3.5,0.004,0.00598261,0.01000149,0.00357862,0.00318568,0.00225552,0.00523617,0.00597041,0.01161381,0.00763404
3.6,0.004,0.00587857,0.01008978,0.003425,0.00284614,0.00210793,0.00478406,0.00652412,0.01164761,0.00736153
3.8,0.004,0.0053157,0.00914556,0.00308965,0.00223013,0.00183467,0.0043775,0.00615142,0.01014368,0.00715678
4.0,0.003,0.00472001,0.0086417,0.00257802,0.00190507,0.00159237,0.00383768,0.00457459,0.00995078,0.00645956
4.2,0.003,0.0041404,0.00772574,0.00221893,0.00167665,0.0014184,0.00336537,0.00382829,0.00903301,0.00552065
4.4,0.003,0.00369018,0.00645844,0.00210847,0.00150962,0.00127026,0.00309593,0.00402393,0.0072839,0.00495746
4.6,0.003,0.00338193,0.00560886,0.00203917,0.00133897,0.00114007,0.00299712,0.00420821,0.00557514,0.00503205
4.8,0.003,0.00297457,0.00486588,0.00181839,0.00118024,0.00102582,0.00268689,0.00399105,0.00417972,0.00478369
5.0,0.002,0.00260815,0.00429147,0.0015851,0.00103841,0.00092611,0.00229895,0.00358398,0.0034321,0.00436932
5.5,0.0,0.00221531,0.00392461,0.00125047,0.00078582,0.0007272,0.001432,0.00320396,0.00379801,0.0033449
6.0,0.0,0.00186479,0.00364338,0.00095446,0.00064504,0.0005841,0.0010674,0.00247666,0.00410613,0.00230943
6.5,0.0,0.00151181,0.00289261,0.00079014,0.00054531,0.00047896,0.00086397,0.00181975,0.00319229,0.0021706
7.0,0.0,0.00125584,0.00237478,0.00066412,0.00046997,0.00040062,0.00072085,0.00146375,0.00257578,0.00190408
7.5,0.0,0.00107529,0.00204908,0.00056428,0.00040828,0.00034074,0.00061242,0.00135605,0.00228713,0.00144714
8.0,0.0,0.0009616,0.00182822,0.00050578,0.0003587,0.00029725,0.00051216,0.00127921,0.00198039,0.00134188
8.5,0.0,0.00083001,0.00151814,0.00045379,0.00031793,0.00026286,0.00043331,0.00122997,0.00148405,0.00125192
9.0,0.0,0.00078041,0.00145036,0.00041993,0.000283,0.00023372,0.00038903,0.00122348,0.00136406,0.00118919
9.5,0.0,0.0006843,0.0012999,0.00036023,0.00025271,0.00020935,0.00033277,0.00110505,0.00131947,0.00088643
10.0,0.0,0.00062192,0.00119927,0.00032251,0.0002264,0.00018853,0.00030143,0.00090073,0.00127747,0.00083693
11.0,0.0,0.00054298,0.0011036,0.00026715,0.00018362,0.00015567,0.0002714,0.00074379,0.00123678,0.00066665
12.0,0.0,0.0004987,0.00104839,0.00023723,0.00015124,0.00013102,0.00022426,0.00080517,0.00112774,0.00055279
13.0,0.0,0.00045562,0.00096999,0.00021401,0.00012719,0.00011201,0.00018207,0.00076894,0.00100877,0.00053473
14.0,0.0,0.00041449,0.00088882,0.0001933,0.00010983,9.694e-05,0.00015175,0.00071508,0.0009017,0.00051166
15.0,0.0,0.00035215,0.0007654,0.00016202,9.629e-05,8.481e-05,0.00013048,0.00055924,0.00081454,0.00042754
20.0,0.0,0.00017658,0.00036912,8.447e-05,5.45e-05,4.851e-05,7.433e-05,0.00024227,0.00040518,0.0002347

 -- Unscaled Horizontal & Vertical Spectra, as recorded --
Period (sec),RSN-481 Horizontal-1 pSa (g),RSN-481 Horizontal-2 pSa (g),RSN-481 Vertical pSa (g),RSN-4329 Horizontal-1 pSa (g),RSN-4329 Horizontal-2 pSa (g),RSN-4329 Vertical pSa (g),RSN-4338 Horizontal-1 pSa (g),RSN-4338 Horizontal-2 pSa (g),RSN-4338 Vertical pSa (g),RSN-4426 Horizontal-1 pSa (g),RSN-4426 Horizontal-2 pSa (g),RSN-4426 Vertical pSa (g),RSN-4431 Horizontal-1 pSa (g),RSN-4431 Horizontal-2 pSa (g),RSN-4431 Vertical pSa (g),RSN-4434 Horizontal-1 pSa (g),RSN-4434 Horizontal-2 pSa (g),RSN-4434 Vertical pSa (g)
0.01,0.03657056,0.04413555,0.0269,0.08758295,0.09188476,0.074,0.03383291,0.0338237,0.0171,0.00705602,0.00573187,,0.00438018,0.00466062,,0.00811978,0.0050061,
0.02,0.03653261,0.04438936,0.0269,0.09322845,0.0981842,0.0776,0.03412959,0.03433396,0.0176,0.00712634,0.0058481,,0.00444302,0.00467775,,0.00818151,0.00505533,
0.022,0.03663632,0.04388757,0.0273,0.09490478,0.1013286,0.0781,0.03407664,0.03462054,0.0178,0.00715139,0.00588807,,0.00444334,0.00468302,,0.00820331,0.00507096,
0.025,0.03751609,0.04494333,0.0277,0.1000984,0.1034226,0.0786,0.03429053,0.03447467,0.0181,0.0071908,0.00594414,,0.00448312,0.00468855,,0.00823215,0.0050961,
0.029,0.03753892,0.04560694,0.0278,0.1060722,0.1022717,0.0854,0.03471809,0.03499986,0.0185,0.00730867,0.00606831,,0.0047875,0.00473598,,0.00833094,0.005203,
0.03,0.03731003,0.04563538,0.0276,0.1057865,0.1032008,0.089,0.03481102,0.03536564,0.0187,0.00735896,0.00604967,,0.00487013,0.00473487,,0.00840814,0.00518513,
0.032,0.03721696,0.04538911,0.028,0.1097569,0.1027669,0.0904,0.03484898,0.03586141,0.0193,0.00738414,0.00617221,,0.004957,0.00469385,,0.00854088,0.00521033,
0.035,0.0376916,0.04498918,0.0288,0.1137048,0.1049861,0.105,0.0350083,0.03560056,0.0204,0.00744926,0.00621535,,0.00496844,0.004825,,0.0084245,0.00523324,
0.036,0.03781792,0.04517354,0.029,0.1127063,0.09991944,0.109,0.03505172,0.03540355,0.0213,0.0074746,0.00616269,,0.00510305,0.00485499,,0.00855058,0.00531208,
0.04,0.03765086,0.04573508,0.0291,0.1333565,0.1002261,0.127,0.03617221,0.03759655,0.0204,0.00754943,0.00649192,,0.00524067,0.00489006,,0.00873788,0.00563528,
0.042,0.03778256,0.04587396,0.0295,0.1361536,0.1096021,0.126,0.03522607,0.03909631,0.0206,0.00788039,0.00672823,,0.00488301,0.00493805,,0.00895671,0.00570801,
0.044,0.03739047,0.04615379,0.0297,0.131725,0.1228594,0.126,0.03547677,0.03986861,0.0234,0.00786248,0.00706001,,0.00508323,0.00496438,,0.00897244,0.00598165,
0.045,0.03748332,0.04635441,0.0297,0.131847,0.1367612,0.123,0.03595587,0.04033313,0.0236,0.00784316,0.00719301,,0.00508962,0.00498814,,0.00909131,0.00616211,
0.046,0.03791222,0.04637462,0.0296,0.1405885,0.1442985,0.124,0.03692772,0.04090457,0.0234,0.00780179,0.00728669,,0.00507268,0.00494704,,0.00925334,0.00629984,
0.048,0.03839514,0.0464346,0.0298,0.153676,0.1550003,0.141,0.03838634,0.04102119,0.0267,0.0080302,0.00735182,,0.00502455,0.00487214,,0.00911975,0.00647909,
0.05,0.03855202,0.04650382,0.0295,0.1534647,0.1790068,0.141,0.03949151,0.04186103,0.0279,0.00846151,0.00779314,,0.00523379,0.00503131,,0.00913383,0.00655897,
0.055,0.03862035,0.04509306,0.0303,0.1672055,0.1946244,0.14,0.03773801,0.04526024,0.0296,0.00856447,0.01064776,,0.00521908,0.0055269,,0.00951379,0.00646627,
0.06,0.04009017,0.04452416,0.0317,0.1884313,0.2193343,0.187,0.03856698,0.04387109,0.0292,0.00889689,0.00968537,,0.0055578,0.00655806,,0.01089226,0.00831953,
0.065,0.04176214,0.04640918,0.0333,0.2034965,0.1973776,0.171,0.0460214,0.04472676,0.0383,0.00860268,0.01096624,,0.00632575,0.00709084,,0.0106793,0.00761087,
0.067,0.04275334,0.04628081,0.0329,0.1963187,0.1903619,0.166,0.05085773,0.04802386,0.0402,0.00876231,0.00965015,,0.00673553,0.00767639,,0.01065692,0.00793103,
0.07,0.04462232,0.04639895,0.0332,0.1927003,0.1955382,0.157,0.06232594,0.05313988,0.0415,0.0092123,0.00982605,,0.00659809,0.00754489,,0.0096413,0.00754691,
0.075,0.04873424,0.04786105,0.0322,0.204508,0.2078159,0.152,0.06245968,0.05983774,0.0418,0.01115026,0.01132177,,0.00651488,0.00756899,,0.0112813,0.00700349,
0.08,0.05485835,0.04714154,0.0281,0.2735715,0.2142555,0.204,0.06934839,0.06387908,0.0464,0.01133483,0.01283367,,0.0074455,0.00693245,,0.01305529,0.01042437,
0.085,0.05553208,0.05011433,0.0308,0.2948909,0.2233836,0.226,0.07455131,0.06142899,0.0491,0.011162,0.01288147,,0.00793613,0.00724389,,0.01211973,0.01190589,
0.09,0.05091668,0.04781985,0.0329,0.2550383,0.221049,0.165,0.07878149,0.06548784,0.0518,0.01171943,0.0123091,,0.0087068,0.00838213,,0.01131309,0.01132138,
