
 PEER Ground Motion Database, Time Series Search Report -- NGA-West2 -- 2019-12-30


 -- Summary of PEER Ground Motion Database Search Criteria --
Magnitude Min:, 6.1
Magnitude Max:, 6.3
Rrup Min (km):, 10.0
Rrup Max (km):, 30.0
Rjb Min (km):, 10.0
Rjb Max (km):, 30.0
Vs30 Min (m/sec):, 600.0
Vs30 Max (m/sec):, 900.0
D9-95 Min (sec):, 5.0
D9-95 Max (sec):, 95.0
Scale Factor Min:, 0.1
Scale Factor Max:, 10.0
Period Array:, 0.1,1,10
Weight Array:, 1,1,1
Record Sequence Number:, 
Earthquake Name:, 
Station Name:, TCU076
User-Defined Maximum Number of Records:, 100
Pulse:, 1
Damping Ratio:, 0.05
Scaling Method:, Minimize MSE
Suite Average:, Arithmetic
Single-Period-Scaling Period (sec):, 
Component:, RotD50
Fault Type:, All Types


 -- Summary of Metadata of Selected Records --
Result ID, Spectral Ordinate, Record Sequence Number, Mean Squared Error, Scale Factor, Tp-Pulse Period (sec), 5-75% Duration (sec), 5-95% Duration (sec), Arias Intensity (m/sec), Earthquake Name, Year, Station Name, Magnitude, Mechanism, Rjb (km), Rrup (km), Vs30 (m/sec), Lowest Useable Frequency (Hz), Initial-search Scale Factor, Horizontal-1 Acc. Filename, Horizontal-2 Acc. Filename, Vertical Acc. Filename
1, RotD50, 2627, 0.1705, 0.5357, -, 3.7, 12.5, 1.0, "Chi-Chi_ Taiwan-03", 1999, "TCU076", 6.2, Reverse, 13.04, 14.66, 614.98, 0.07, 0.5511, RSN2627_CHICHI.03_TCU076N.AT2, RSN2627_CHICHI.03_TCU076E.AT2 , RSN2627_CHICHI.03_TCU076V.AT2  
2, RotD50, 3472, 0.056, 1.4095, -, 7.9, 17.6, 0.2, "Chi-Chi_ Taiwan-06", 1999, "TCU076", 6.3, Reverse, 23.84, 25.85, 614.98, 0.055, 1.4501, RSN3472_CHICHI.06_TCU076N.AT2, RSN3472_CHICHI.06_TCU076E.AT2 , RSN3472_CHICHI.06_TCU076V.AT2  

 These records were obtained from the NGA-West2 On-Line Ground-Motion Database Tool
 These records are UNSCALED, AS RECORDED
 Filename Extension: 
   ,AT2 = Acceleration
   ,VT2 = Velocity
   ,DT2 = Displacement
 The users of the NGA-West2 databases, flatfiles, models and reports are requested to acknowledge the Pacific Earthquake Engineering Research Center (PEER) in their work and publications.

 -- Scaled Spectra used in Search & Scaling --
Period (sec),Target pSa (g),Arithmetic Mean pSa (g),Arithmetic Mean + Sigma pSa (g),Arithmetic Mean - Sigma pSa (g),RSN-2627 RotD50 pSa (g),RSN-3472 RotD50 pSa (g)
0.01,0.227,0.1899386,0.20378157,0.17703598,0.20330037,0.17657682
0.02,0.243,0.19756752,0.21098668,0.18500185,0.21055059,0.18458445
0.022,0.249,0.20374108,0.2106465,0.19706203,0.21053206,0.1969501
0.025,0.259,0.20610131,0.21488406,0.19767752,0.21470208,0.19750053
0.029,0.274,0.2124441,0.2130662,0.21182382,0.21182291,0.21306529
0.03,0.278,0.21663982,0.21978007,0.21354444,0.21352211,0.21975753
0.032,0.286,0.2311887,0.2457826,0.21746133,0.2170369,0.24534049
0.035,0.3,0.23327789,0.2430639,0.22388587,0.22369157,0.2428642
0.036,0.304,0.23577943,0.24612352,0.22587008,0.22565582,0.24590304
0.04,0.323,0.2492024,0.26278002,0.23632632,0.23598175,0.26242305
0.042,0.332,0.24249872,0.25344771,0.23202273,0.23178971,0.25320773
0.044,0.341,0.24638366,0.26516584,0.22893185,0.22828295,0.26448437
0.045,0.346,0.24785128,0.26736592,0.22976098,0.2290668,0.26663576
0.046,0.351,0.25097919,0.27056018,0.23281532,0.2321245,0.26983388
0.048,0.36,0.24733157,0.25414346,0.24070226,0.2406118,0.25405134
0.05,0.369,0.26231955,0.27724064,0.24820151,0.24780739,0.27683171
0.055,0.391,0.28972825,0.33907831,0.24756068,0.24415756,0.33529893
0.06,0.411,0.27858966,0.29365294,0.26429907,0.26391951,0.29325981
0.065,0.43,0.2997757,0.32569348,0.27592038,0.27491765,0.32463375
0.067,0.438,0.29895225,0.33091183,0.27007934,0.26858824,0.32931626
0.07,0.448,0.28418513,0.3163199,0.2553149,0.25374089,0.31462936
0.075,0.463,0.27234848,0.31721105,0.23383074,0.23081945,0.31387751
0.08,0.477,0.27876193,0.34686995,0.22402693,0.21782685,0.339697
0.085,0.489,0.28562637,0.36274336,0.22490398,0.21735852,0.35389422
0.09,0.499,0.2923682,0.3589978,0.23810498,0.23234434,0.35239206
0.095,0.508,0.30377485,0.38936648,0.2369982,0.22836753,0.37918216
0.1,0.516,0.32296146,0.43848175,0.23787559,0.22420463,0.42171829
0.11,0.526,0.37839795,0.56380294,0.25396286,0.22750859,0.5292873
0.12,0.533,0.43204925,0.6556459,0.28470636,0.2518496,0.6122489
0.13,0.535,0.41374674,0.57893452,0.2956921,0.27475459,0.55273889
0.133,0.536,0.41813772,0.58276282,0.30001769,0.27932878,0.55694666
0.14,0.535,0.39454935,0.52375295,0.29721874,0.28278304,0.50631566
0.15,0.532,0.3675511,0.48685042,0.27748525,0.26423448,0.47086772
0.16,0.527,0.33672332,0.42193009,0.26872364,0.26076592,0.41268071
0.17,0.521,0.32628392,0.38567594,0.27603795,0.2717196,0.38084824
0.18,0.514,0.33366004,0.37656818,0.29564107,0.29329501,0.37402506
0.19,0.505,0.3467596,0.38389021,0.31322033,0.31148552,0.38203367
0.2,0.497,0.37015686,0.41980153,0.32638305,0.3235707,0.41674302
0.22,0.478,0.38072138,0.39050804,0.37117999,0.39038437,0.37105839
0.24,0.459,0.3835038,0.3988339,0.36876294,0.39853543,0.36847216
0.25,0.449,0.3844704,0.38653777,0.3824141,0.38240858,0.38653223
0.26,0.44,0.35924237,0.36054186,0.35794756,0.35794522,0.36053952
0.28,0.422,0.35601701,0.38051274,0.33309821,0.33232723,0.37970679
0.29,0.413,0.3432576,0.35182011,0.33490348,0.33480014,0.35171506
0.3,0.404,0.32223836,0.32719441,0.31735738,0.32715668,0.31732004
0.32,0.388,0.34029531,0.37119574,0.31196721,0.36987232,0.3107183
0.34,0.373,0.37404251,0.40926233,0.3418536,0.40770143,0.34038359
0.35,0.366,0.38894895,0.42924812,0.35243319,0.42729427,0.35060363
0.36,0.359,0.39933141,0.44167159,0.3610501,0.439574,0.35908881
0.38,0.345,0.37726235,0.45715152,0.31133415,0.44972466,0.30480004
0.4,0.333,0.36818821,0.48097513,0.28184941,0.46657595,0.26980047
0.42,0.322,0.36611064,0.49290593,0.27193222,0.47498563,0.25723565
0.44,0.311,0.36790641,0.48160235,0.28105163,0.46698,0.26883282
0.45,0.306,0.38131011,0.47229828,0.30785079,0.46290962,0.2997106
0.46,0.301,0.39337038,0.46940594,0.32965124,0.46288535,0.3238554
0.48,0.292,0.39874428,0.46975604,0.33846718,0.46409575,0.33339281
0.5,0.284,0.37769068,0.46201287,0.30875817,0.45380185,0.30157951
0.55,0.264,0.33448984,0.45372384,0.24658932,0.43646985,0.23250983
0.6,0.248,0.32713236,0.44239062,0.24190291,0.42587019,0.22839452
0.65,0.233,0.33660484,0.43015928,0.26339736,0.4191558,0.25405388
0.667,0.228,0.34770736,0.43022453,0.281017,0.42175026,0.27366446
0.7,0.22,0.33772528,0.43145867,0.26435525,0.42044735,0.25500321
0.75,0.208,0.31588445,0.39284907,0.25399827,0.38476274,0.24700615
0.8,0.196,0.29156984,0.36193471,0.23488482,0.35460265,0.22853702
0.85,0.186,0.27834446,0.3379548,0.22924851,0.33235797,0.22433094
0.9,0.177,0.24036209,0.30450415,0.18973119,0.29721691,0.18350727
0.95,0.168,0.21204526,0.26708785,0.16834607,0.26098062,0.16310989
1.0,0.159,0.18661973,0.24398965,0.14273935,0.23664367,0.13659579
1.1,0.144,0.15906252,0.22083656,0.11456837,0.211255,0.10687004
1.2,0.13,0.14561232,0.1993314,0.10637033,0.19133765,0.09988698
1.3,0.118,0.12688832,0.17181681,0.09370821,0.1653509,0.08842574
1.4,0.108,0.10887133,0.14178787,0.08359647,0.13763136,0.08011129
1.5,0.099,0.08995772,0.1178638,0.06865884,0.11426339,0.06565205
1.6,0.09,0.07902353,0.09965617,0.06266264,0.09735543,0.06069163
1.7,0.083,0.07010686,0.08646834,0.05684129,0.08481231,0.05540141
1.8,0.077,0.06399344,0.07640334,0.05359923,0.07533601,0.05265087
1.9,0.071,0.05950004,0.0672841,0.05261651,0.06681539,0.05218469
2.0,0.066,0.05508546,0.05896256,0.0514633,0.0588322,0.05133872
2.2,0.057,0.04749608,0.04963891,0.04544575,0.04540018,0.04959198
2.4,0.05,0.04400999,0.04938291,0.03922165,0.03894058,0.0490794
2.5,0.047,0.04470109,0.05088939,0.03926531,0.0389053,0.05049688
2.6,0.044,0.04448294,0.05101852,0.03878458,0.03838509,0.05058079
2.8,0.04,0.0431259,0.05188184,0.03584767,0.03515429,0.05109751
3.0,0.036,0.04183447,0.05483384,0.03191685,0.03051462,0.05315433
3.2,0.032,0.03756548,0.05084824,0.02775248,0.02619215,0.0489388
3.4,0.029,0.03425623,0.04850126,0.02419503,0.02234461,0.04616785
3.5,0.028,0.03235287,0.04630995,0.02260223,0.02074938,0.04395636
3.6,0.027,0.03044776,0.04394863,0.02109431,0.01927316,0.04162236
3.8,0.025,0.02789742,0.04023223,0.01934433,0.01768321,0.03811162
4.0,0.023,0.02559396,0.03581168,0.01829154,0.01699649,0.03419142
4.2,0.021,0.02283447,0.03073596,0.01696426,0.01604892,0.02962001
4.4,0.02,0.02050948,0.02620641,0.01605099,0.01548226,0.0255367
4.6,0.018,0.01902952,0.02325843,0.01556953,0.01521076,0.02284829
4.8,0.017,0.01788662,0.02065079,0.01549244,0.0153163,0.02045694
5.0,0.016,0.01661452,0.01799289,0.01534174,0.01529035,0.01793869
5.5,0.0,0.01453072,0.01461458,0.01444734,0.01461434,0.0144471
6.0,0.0,0.01178793,0.01260535,0.01102352,0.01257825,0.01099761
6.5,0.0,0.00973964,0.01118678,0.00847969,0.01108886,0.00839041
7.0,0.0,0.00824298,0.0096567,0.00703623,0.00954776,0.0069382
7.5,0.0,0.00686677,0.00778916,0.00605361,0.00773225,0.00600129
8.0,0.0,0.0058898,0.00647872,0.00535441,0.0064511,0.00532849
8.5,0.0,0.00506425,0.00542442,0.00472799,0.00541219,0.00471631
9.0,0.0,0.00442946,0.00471683,0.0041596,0.00470789,0.00415103
9.5,0.0,0.00384476,0.00407526,0.00362729,0.00406861,0.0036209
10.0,0.0,0.00333333,0.00356261,0.0031188,0.00355507,0.00311159
11.0,0.0,0.00255979,0.00267411,0.00245036,0.00267163,0.00244795
12.0,0.0,0.00200394,0.00202726,0.00198087,0.00202713,0.00198074
13.0,0.0,0.0016544,0.00170008,0.00160995,0.00169946,0.00160934
14.0,0.0,0.00141181,0.00144454,0.00137982,0.00144417,0.00137945
15.0,0.0,0.00120917,0.00123112,0.00118761,0.00123092,0.00118742
20.0,0.0,0.0006322,0.00065861,0.00060684,0.00060632,0.00065807

 -- Unscaled Horizontal & Vertical Spectra, as recorded --
Period (sec),RSN-2627 Horizontal-1 pSa (g),RSN-2627 Horizontal-2 pSa (g),RSN-2627 Vertical pSa (g),RSN-3472 Horizontal-1 pSa (g),RSN-3472 Horizontal-2 pSa (g),RSN-3472 Vertical pSa (g)
0.01,0.1617659,0.5225174,0.254,0.114567,0.1236257,0.257
0.02,0.1742563,0.5354266,0.264,0.1196489,0.1280921,0.289
0.022,0.1765674,0.5378373,0.272,0.1239883,0.1426859,0.298
0.025,0.1762414,0.5502423,0.263,0.139315,0.1480188,0.294
0.029,0.1686163,0.5265475,0.258,0.1472016,0.1467857,0.348
0.03,0.1728445,0.5298904,0.262,0.1513027,0.1659271,0.373
0.032,0.1724059,0.5481318,0.268,0.1674777,0.1979661,0.392
0.035,0.2011439,0.5815158,0.262,0.1605244,0.1915386,0.373
0.036,0.2066046,0.5843914,0.269,0.1579267,0.2021258,0.365
0.04,0.2145929,0.6000074,0.287,0.169927,0.2141544,0.347
0.042,0.2192431,0.5832684,0.294,0.1732435,0.1927433,0.377
0.044,0.2289492,0.5698748,0.308,0.1786622,0.2045534,0.425
0.045,0.2202508,0.5727893,0.314,0.1832858,0.2083443,0.454
0.046,0.2216917,0.5794673,0.322,0.1902628,0.1999737,0.485
0.048,0.2266744,0.5849279,0.339,0.208075,0.170534,0.549
0.05,0.2151066,0.5817031,0.36,0.2239207,0.1757542,0.611
0.055,0.2474832,0.5697281,0.511,0.2588404,0.2275402,0.838
0.06,0.3193051,0.6124911,0.588,0.2220819,0.1977146,0.815
0.065,0.2591614,0.6591025,0.539,0.2342874,0.2048069,0.829
0.067,0.2235739,0.6631675,0.537,0.2445983,0.1993411,0.815
0.07,0.2088844,0.6546987,0.557,0.2556702,0.1951693,0.717
0.075,0.2431954,0.6029962,0.621,0.2844657,0.1856148,0.542
0.08,0.2485144,0.5475374,0.716,0.3268653,0.1873356,0.38
0.085,0.227807,0.5329571,0.6,0.310003,0.1788675,0.446
0.09,0.2574257,0.53159,0.44,0.305883,0.18476,0.465
0.095,0.2457871,0.5445074,0.382,0.3263492,0.2131277,0.469
0.1,0.2144662,0.5650897,0.358,0.3810963,0.2599638,0.533
0.11,0.215574,0.559781,0.311,0.4991193,0.2547475,0.523
0.12,0.2169518,0.6385662,0.355,0.5632354,0.2451776,0.484
0.13,0.2381328,0.6767062,0.428,0.4978459,0.2532692,0.429
0.133,0.2457586,0.6830264,0.439,0.4625395,0.2673252,0.426
0.14,0.2636487,0.6872738,0.447,0.3906194,0.3149208,0.424
0.15,0.258426,0.6526315,0.425,0.2623203,0.3626327,0.323
0.16,0.2737242,0.6458464,0.383,0.2219875,0.3274193,0.227
0.17,0.2780025,0.6756855,0.349,0.2246461,0.3088756,0.202
0.18,0.2988946,0.7527243,0.296,0.2436995,0.2975807,0.18
0.19,0.3891994,0.8131266,0.287,0.3130072,0.2450946,0.212
0.2,0.4574161,0.8199766,0.281,0.3042299,0.2326501,0.206
0.22,0.5231189,0.8777301,0.234,0.3155215,0.2134679,0.172
0.24,0.5568007,0.7796608,0.22,0.2508196,0.2684977,0.204
0.25,0.5201522,0.6973476,0.218,0.2452895,0.277861,0.216
0.26,0.5272142,0.6565929,0.225,0.2352003,0.2867684,0.209
0.28,0.5004824,0.7191996,0.222,0.2302959,0.3053736,0.231
0.29,0.4947737,0.7305631,0.228,0.2178843,0.2963984,0.261
0.3,0.4970828,0.7045645,0.214,0.2044853,0.285197,0.274
0.32,0.525879,0.6694725,0.228,0.1833464,0.2976953,0.237
0.34,0.5402384,0.7566327,0.226,0.1434656,0.2981732,0.191
0.35,0.5412353,0.8354568,0.229,0.141058,0.2852026,0.175
0.36,0.5379615,0.9215912,0.236,0.1511999,0.2751608,0.163
0.38,0.4891739,1.058424,0.238,0.187299,0.2330523,0.145
0.4,0.4112943,1.160297,0.249,0.2125644,0.1781008,0.135
0.42,0.3486461,1.218204,0.278,0.1703199,0.2078262,0.156
0.44,0.3378326,1.21909,0.274,0.1702278,0.2495907,0.173
0.45,0.3251384,1.214815,0.278,0.1851126,0.2620709,0.171
0.46,0.3069938,1.216617,0.285,0.1942341,0.2721874,0.164
0.48,0.2665204,1.216774,0.284,0.1920595,0.2830426,0.156
0.5,0.2423368,1.184204,0.309,0.1695166,0.2724556,0.142
0.55,0.290074,1.116248,0.368,0.1117033,0.2089048,0.133
0.6,0.3378589,1.072477,0.433,0.08609021,0.2191713,0.123
0.65,0.3537221,1.048576,0.485,0.07548145,0.2452386,0.147
0.667,0.3597408,1.053813,0.495,0.07384802,0.2564344,0.157
0.7,0.3545161,1.051771,0.5,0.0734604,0.2385502,0.163
0.75,0.2845109,0.9749101,0.542,0.06518606,0.233172,0.149
0.8,0.2293039,0.9092525,0.589,0.05266143,0.22043,0.159
0.85,0.2230733,0.8579184,0.589,0.05252075,0.2226377,0.156
0.9,0.1949769,0.7734392,0.586,0.05462204,0.1812223,0.149
0.95,0.1661738,0.6824883,0.578,0.04507644,0.1580992,0.137
1.0,0.1652769,0.6167398,0.541,0.04529609,0.1317027,0.0888
1.1,0.1757276,0.5400527,0.451,0.0694993,0.07494078,0.0648
1.2,0.1482106,0.4687592,0.35,0.05704137,0.08364862,0.0558
1.3,0.1325986,0.4035238,0.275,0.05365268,0.06848967,0.0578
1.4,0.121171,0.3444123,0.233,0.04512623,0.07007307,0.0465
1.5,0.1138904,0.2887422,0.208,0.04687213,0.04773946,0.055
1.6,0.107378,0.2461599,0.18,0.04976242,0.03866131,0.0522
1.7,0.09888289,0.2151311,0.148,0.03958412,0.03709622,0.038
1.8,0.0884902,0.1901729,0.119,0.03402584,0.03666295,0.0275
1.9,0.07759615,0.1676311,0.0981,0.03454615,0.03935063,0.0264
2.0,0.06757739,0.1467371,0.0837,0.03677103,0.03857261,0.0273
2.2,0.05200823,0.111256,0.0751,0.03231868,0.03563455,0.0293
2.4,0.04668202,0.08728693,0.0679,0.02795058,0.04018055,0.0346
2.5,0.04701331,0.08646502,0.0611,0.02773206,0.04273283,0.0321
2.6,0.0459318,0.08390912,0.0555,0.03077309,0.04509264,0.0297
2.8,0.04150144,0.07811236,0.0495,0.02531701,0.04825168,0.0294
3.0,0.03690168,0.07117844,0.0417,0.01621927,0.04797233,0.0322
3.2,0.03248972,0.06179835,0.0417,0.01463023,0.04597357,0.034
3.4,0.02783484,0.05248385,0.0472,0.01335135,0.04146488,0.0344
3.5,0.02590062,0.04795595,0.0501,0.01260069,0.040515,0.0337
3.6,0.02452211,0.04370873,0.053,0.01213136,0.0393545,0.0323
3.8,0.02233983,0.03784565,0.0571,0.01097813,0.03662753,0.0276
4.0,0.0206969,0.0364918,0.061,0.00965282,0.03294103,0.0243
4.2,0.01991632,0.0367353,0.0618,0.00996346,0.02867572,0.0199
4.4,0.02007676,0.03624354,0.06,0.0105032,0.02496503,0.0158
4.6,0.02032386,0.03593811,0.0565,0.01006966,0.02130986,0.0131
4.8,0.02057874,0.0354565,0.0521,0.00918368,0.01854495,0.012
5.0,0.02059031,0.03443421,0.0474,0.00865577,0.01679526,0.0119
5.5,0.02172556,0.03048271,0.0364,0.00719708,0.01255143,0.0123
6.0,0.02225856,0.02553804,0.0282,0.00562826,0.00926933,0.0111
6.5,0.02034745,0.02179304,0.0241,0.00467458,0.00705233,0.00913
7.0,0.01795448,0.01767229,0.0212,0.00420819,0.00564446,0.00728
7.5,0.01506468,0.01376117,0.0186,0.0037981,0.00474944,0.00613
8.0,0.01253074,0.01095019,0.0162,0.00344648,0.00413625,0.00597
8.5,0.01063278,0.00928995,0.014,0.00303457,0.00367149,0.00573
9.0,0.00921209,0.00782514,0.0119,0.00261736,0.00328844,0.00539
9.5,0.00800837,0.00664841,0.01,0.00222373,0.00295403,0.00496
10.0,0.00691725,0.00569215,0.00841,0.00184485,0.00265288,0.00446
11.0,0.00503377,0.00477827,0.00593,0.00133263,0.00213244,0.00341
12.0,0.00368891,0.00405724,0.00499,0.00120746,0.00171671,0.00247
13.0,0.00310495,0.00342551,0.00422,0.0010617,0.00139561,0.00173
14.0,0.00263897,0.00287083,0.0036,0.00092142,0.00114918,0.00138
15.0,0.00226458,0.00240377,0.00307,0.00079479,0.00096064,0.00125
20.0,0.00112377,0.0011552,0.00151,0.00039167,0.00057648,0.000653
