
 PEER Ground Motion Database, Time Series Search Report -- NGA-West2 -- 2019-12-30


 -- Summary of PEER Ground Motion Database Search Criteria --
Magnitude Min:, 5.4
Magnitude Max:, 5.6
Rrup Min (km):, 10.0
Rrup Max (km):, 30.0
Rjb Min (km):, 10.0
Rjb Max (km):, 30.0
Vs30 Min (m/sec):, 700.0
Vs30 Max (m/sec):, 900.0
D9-95 Min (sec):, 5.0
D9-95 Max (sec):, 95.0
Scale Factor Min:, 0.1
Scale Factor Max:, 10.0
Period Array:, 0.1,1,10
Weight Array:, 1,1,1
Record Sequence Number:, 
Earthquake Name:, 
Station Name:, 
User-Defined Maximum Number of Records:, 100
Pulse:, 1
Damping Ratio:, 0.05
Scaling Method:, Minimize MSE
Suite Average:, Arithmetic
Single-Period-Scaling Period (sec):, 
Component:, RotD50
Fault Type:, All Types


 -- Summary of Metadata of Selected Records --
Result ID, Spectral Ordinate, Record Sequence Number, Mean Squared Error, Scale Factor, Tp-Pulse Period (sec), 5-75% Duration (sec), 5-95% Duration (sec), Arias Intensity (m/sec), Earthquake Name, Year, Station Name, Magnitude, Mechanism, Rjb (km), Rrup (km), Vs30 (m/sec), Lowest Useable Frequency (Hz), Initial-search Scale Factor, Horizontal-1 Acc. Filename, Horizontal-2 Acc. Filename, Vertical Acc. Filename
1, RotD50, 4554, 0.3132, 1.7048, -, 7.8, 15.4, 0.0, "L'Aquila (aftershock 2)_ Italy", 2009, "L'Aquila - Parking", 5.4, Normal, 13.99, 19.97, 717.0, 0.0625, 1.7048, RSN4554_L-AQUILA.B_AM440XTE.AT2, RSN4554_L-AQUILA.B_AM440YLN.AT2 , RSN4554_L-AQUILA.B_AM440ZUP.AT2  

 These records were obtained from the NGA-West2 On-Line Ground-Motion Database Tool
 These records are UNSCALED, AS RECORDED
 Filename Extension: 
   ,AT2 = Acceleration
   ,VT2 = Velocity
   ,DT2 = Displacement
 The users of the NGA-West2 databases, flatfiles, models and reports are requested to acknowledge the Pacific Earthquake Engineering Research Center (PEER) in their work and publications.

 -- Scaled Spectra used in Search & Scaling --
Period (sec),Target pSa (g),Arithmetic Mean pSa (g),Arithmetic Mean + Sigma pSa (g),Arithmetic Mean - Sigma pSa (g),RSN-4554 RotD50 pSa (g)
0.01,0.143,0.0766281,0.0766281,0.0766281,0.0766281
0.02,0.158,0.0795894,0.0795894,0.0795894,0.0795894
0.022,0.164,0.08407688,0.08407688,0.08407688,0.08407688
0.025,0.173,0.0875887,0.0875887,0.0875887,0.0875887
0.029,0.187,0.09659619,0.09659619,0.09659619,0.09659619
0.03,0.19,0.09901626,0.09901626,0.09901626,0.09901626
0.032,0.198,0.10534943,0.10534943,0.10534943,0.10534943
0.035,0.209,0.12766177,0.12766177,0.12766177,0.12766177
0.036,0.213,0.14267188,0.14267188,0.14267188,0.14267188
0.04,0.227,0.16931916,0.16931916,0.16931916,0.16931916
0.042,0.235,0.18401027,0.18401027,0.18401027,0.18401027
0.044,0.242,0.19282446,0.19282446,0.19282446,0.19282446
0.045,0.245,0.19008813,0.19008813,0.19008813,0.19008813
0.046,0.249,0.18863089,0.18863089,0.18863089,0.18863089
0.048,0.256,0.19943524,0.19943524,0.19943524,0.19943524
0.05,0.262,0.20102238,0.20102238,0.20102238,0.20102238
0.055,0.277,0.25164344,0.25164344,0.25164344,0.25164344
0.06,0.29,0.21538903,0.21538903,0.21538903,0.21538903
0.065,0.301,0.19910315,0.19910315,0.19910315,0.19910315
0.067,0.305,0.18745306,0.18745306,0.18745306,0.18745306
0.07,0.31,0.18075995,0.18075995,0.18075995,0.18075995
0.075,0.318,0.17021738,0.17021738,0.17021738,0.17021738
0.08,0.324,0.18159887,0.18159887,0.18159887,0.18159887
0.085,0.328,0.18014214,0.18014214,0.18014214,0.18014214
0.09,0.331,0.17702274,0.17702274,0.17702274,0.17702274
0.095,0.333,0.17840258,0.17840258,0.17840258,0.17840258
0.1,0.334,0.17193245,0.17193245,0.17193245,0.17193245
0.11,0.333,0.17988898,0.17988898,0.17988898,0.17988898
0.12,0.329,0.17650244,0.17650244,0.17650244,0.17650244
0.13,0.323,0.17645641,0.17645641,0.17645641,0.17645641
0.133,0.321,0.18202608,0.18202608,0.18202608,0.18202608
0.14,0.316,0.19410304,0.19410304,0.19410304,0.19410304
0.15,0.308,0.14770045,0.14770045,0.14770045,0.14770045
0.16,0.299,0.14123559,0.14123559,0.14123559,0.14123559
0.17,0.291,0.12344012,0.12344012,0.12344012,0.12344012
0.18,0.282,0.1168454,0.1168454,0.1168454,0.1168454
0.19,0.273,0.12432963,0.12432963,0.12432963,0.12432963
0.2,0.264,0.11746536,0.11746536,0.11746536,0.11746536
0.22,0.248,0.1385886,0.1385886,0.1385886,0.1385886
0.24,0.233,0.12796273,0.12796273,0.12796273,0.12796273
0.25,0.226,0.12634972,0.12634972,0.12634972,0.12634972
0.26,0.219,0.14766881,0.14766881,0.14766881,0.14766881
0.28,0.206,0.14377192,0.14377192,0.14377192,0.14377192
0.29,0.201,0.13755207,0.13755207,0.13755207,0.13755207
0.3,0.195,0.1427267,0.1427267,0.1427267,0.1427267
0.32,0.185,0.12537706,0.12537706,0.12537706,0.12537706
0.34,0.175,0.10773504,0.10773504,0.10773504,0.10773504
0.35,0.171,0.10064346,0.10064346,0.10064346,0.10064346
0.36,0.167,0.10057553,0.10057553,0.10057553,0.10057553
0.38,0.159,0.12715538,0.12715538,0.12715538,0.12715538
0.4,0.151,0.13246548,0.13246548,0.13246548,0.13246548
0.42,0.144,0.12206668,0.12206668,0.12206668,0.12206668
0.44,0.138,0.11514687,0.11514687,0.11514687,0.11514687
0.45,0.135,0.10292812,0.10292812,0.10292812,0.10292812
0.46,0.132,0.09126736,0.09126736,0.09126736,0.09126736
0.48,0.127,0.08687878,0.08687878,0.08687878,0.08687878
0.5,0.121,0.09689874,0.09689874,0.09689874,0.09689874
0.55,0.11,0.11349218,0.11349218,0.11349218,0.11349218
0.6,0.099,0.11575989,0.11575989,0.11575989,0.11575989
0.65,0.09,0.1176976,0.1176976,0.1176976,0.1176976
0.667,0.088,0.11786714,0.11786714,0.11786714,0.11786714
0.7,0.083,0.10827233,0.10827233,0.10827233,0.10827233
0.75,0.076,0.11678988,0.11678988,0.11678988,0.11678988
0.8,0.069,0.11257784,0.11257784,0.11257784,0.11257784
0.85,0.064,0.0899345,0.0899345,0.0899345,0.0899345
0.9,0.059,0.07445545,0.07445545,0.07445545,0.07445545
0.95,0.055,0.07283246,0.07283246,0.07283246,0.07283246
1.0,0.051,0.0801619,0.0801619,0.0801619,0.0801619
1.1,0.044,0.09751844,0.09751844,0.09751844,0.09751844
1.2,0.039,0.08497541,0.08497541,0.08497541,0.08497541
1.3,0.034,0.07083349,0.07083349,0.07083349,0.07083349
1.4,0.031,0.057833,0.057833,0.057833,0.057833
1.5,0.028,0.06660739,0.06660739,0.06660739,0.06660739
1.6,0.025,0.07614576,0.07614576,0.07614576,0.07614576
1.7,0.023,0.07744989,0.07744989,0.07744989,0.07744989
1.8,0.021,0.07158375,0.07158375,0.07158375,0.07158375
1.9,0.019,0.06099744,0.06099744,0.06099744,0.06099744
2.0,0.018,0.05233543,0.05233543,0.05233543,0.05233543
2.2,0.015,0.03606774,0.03606774,0.03606774,0.03606774
2.4,0.013,0.02535497,0.02535497,0.02535497,0.02535497
2.5,0.012,0.02078241,0.02078241,0.02078241,0.02078241
2.6,0.012,0.01692167,0.01692167,0.01692167,0.01692167
2.8,0.01,0.01321389,0.01321389,0.01321389,0.01321389
3.0,0.009,0.01067064,0.01067064,0.01067064,0.01067064
3.2,0.008,0.00877428,0.00877428,0.00877428,0.00877428
3.4,0.008,0.0074632,0.0074632,0.0074632,0.0074632
3.5,0.007,0.00707704,0.00707704,0.00707704,0.00707704
3.6,0.007,0.00690872,0.00690872,0.00690872,0.00690872
3.8,0.006,0.0063645,0.0063645,0.0063645,0.0063645
4.0,0.006,0.00571827,0.00571827,0.00571827,0.00571827
4.2,0.005,0.00517089,0.00517089,0.00517089,0.00517089
4.4,0.005,0.00471217,0.00471217,0.00471217,0.00471217
4.6,0.005,0.00418564,0.00418564,0.00418564,0.00418564
4.8,0.004,0.00389828,0.00389828,0.00389828,0.00389828
5.0,0.004,0.00372259,0.00372259,0.00372259,0.00372259
5.5,0.0,0.00320757,0.00320757,0.00320757,0.00320757
6.0,0.0,0.0026912,0.0026912,0.0026912,0.0026912
6.5,0.0,0.00223835,0.00223835,0.00223835,0.00223835
7.0,0.0,0.00186206,0.00186206,0.00186206,0.00186206
7.5,0.0,0.00155736,0.00155736,0.00155736,0.00155736
8.0,0.0,0.00131368,0.00131368,0.00131368,0.00131368
8.5,0.0,0.00111829,0.00111829,0.00111829,0.00111829
9.0,0.0,0.00096182,0.00096182,0.00096182,0.00096182
9.5,0.0,0.00083526,0.00083526,0.00083526,0.00083526
10.0,0.0,0.00073176,0.00073176,0.00073176,0.00073176
11.0,0.0,0.00057608,0.00057608,0.00057608,0.00057608
12.0,0.0,0.00046662,0.00046662,0.00046662,0.00046662
13.0,0.0,0.0003869,0.0003869,0.0003869,0.0003869
14.0,0.0,0.00032689,0.00032689,0.00032689,0.00032689
15.0,0.0,0.00028047,0.00028047,0.00028047,0.00028047
20.0,0.0,0.00015253,0.00015253,0.00015253,0.00015253

 -- Unscaled Horizontal & Vertical Spectra, as recorded --
Period (sec),RSN-4554 Horizontal-1 pSa (g),RSN-4554 Horizontal-2 pSa (g),RSN-4554 Vertical pSa (g)
0.01,0.04115018,0.05008622,0.0336
0.02,0.04363799,0.05203325,0.0345
0.022,0.04536265,0.05307131,0.0361
0.025,0.04731258,0.05098935,0.0367
0.029,0.05466921,0.06277202,0.0376
0.03,0.058564,0.06408463,0.038
0.032,0.05523081,0.07444359,0.0487
0.035,0.06793473,0.07489263,0.0691
0.036,0.07067734,0.08553909,0.0764
0.04,0.1038748,0.09792721,0.072
0.042,0.08566945,0.113402,0.0725
0.044,0.07574042,0.1316664,0.0733
0.045,0.08627742,0.1322545,0.076
0.046,0.1001924,0.1313778,0.0818
0.048,0.1169778,0.1369593,0.0967
0.05,0.1133765,0.1401007,0.098
0.055,0.1332989,0.1774232,0.0855
0.06,0.1274704,0.1325897,0.107
0.065,0.1082097,0.140163,0.081
0.067,0.09433078,0.1362935,0.0727
0.07,0.07524671,0.1264091,0.0705
0.075,0.07618362,0.1223056,0.0689
0.08,0.08722398,0.1145377,0.0762
0.085,0.1048227,0.1096925,0.0791
0.09,0.1147459,0.09001579,0.0738
0.095,0.1081444,0.1028545,0.0718
0.1,0.1145594,0.1008396,0.0753
0.11,0.09075471,0.11098,0.0803
0.12,0.07949564,0.1085333,0.0962
0.13,0.0885291,0.109148,0.0963
0.133,0.08482746,0.1150815,0.0954
0.14,0.07553952,0.1185842,0.0984
0.15,0.07166827,0.09026103,0.0929
0.16,0.08243033,0.09640635,0.093
0.17,0.07306299,0.07818604,0.0848
0.18,0.06833822,0.0718353,0.0964
0.19,0.07359836,0.07795944,0.105
0.2,0.07254392,0.07073859,0.109
0.22,0.08208035,0.06936896,0.0699
0.24,0.07491869,0.06482034,0.076
0.25,0.07311634,0.07443921,0.0833
0.26,0.071554,0.0882325,0.0986
0.28,0.09776648,0.07479566,0.083
0.29,0.09798939,0.06970131,0.0715
0.3,0.08774454,0.07058892,0.0656
0.32,0.07775643,0.07034422,0.0564
0.34,0.06138064,0.06786606,0.0518
0.35,0.05605718,0.0753966,0.0504
0.36,0.04965664,0.08268708,0.0483
0.38,0.0499836,0.1054173,0.0489
0.4,0.05707981,0.109827,0.0553
0.42,0.06098201,0.1004148,0.0506
0.44,0.05127393,0.09523048,0.047
0.45,0.04491434,0.08342135,0.0504
0.46,0.0420417,0.07084356,0.0506
0.48,0.0436011,0.06105874,0.0513
0.5,0.04420623,0.06995729,0.0572
0.55,0.05791143,0.07156123,0.0507
0.6,0.06883658,0.06696286,0.0505
0.65,0.06331772,0.07297004,0.0515
0.667,0.05932074,0.07578357,0.0538
0.7,0.05116639,0.07387376,0.0652
0.75,0.07008714,0.06671531,0.0659
0.8,0.070724,0.06400772,0.0684
0.85,0.06319211,0.05071121,0.0762
0.9,0.06084767,0.03951069,0.0764
0.95,0.05598067,0.04110151,0.0661
1.0,0.04481649,0.05224083,0.0523
1.1,0.05769556,0.06337912,0.0333
1.2,0.0523269,0.05414718,0.0308
1.3,0.04874048,0.03941028,0.0212
1.4,0.03319135,0.0343988,0.0152
1.5,0.03903331,0.03906894,0.0171
1.6,0.04388007,0.04575571,0.0136
1.7,0.04540166,0.04546068,0.00966
1.8,0.04491856,0.04109895,0.0079
1.9,0.03771437,0.03478364,0.00776
2.0,0.03091752,0.03107661,0.00764
2.2,0.01693448,0.02495397,0.00581
2.4,0.01161068,0.01790461,0.00569
2.5,0.00964114,0.01482372,0.00481
2.6,0.00846534,0.01224818,0.00376
2.8,0.00715581,0.00865715,0.00257
3.0,0.00611325,0.00669575,0.00201
3.2,0.00516287,0.00564572,0.00162
3.4,0.00432703,0.00497388,0.00137
3.5,0.00395463,0.00468716,0.00141
3.6,0.00363565,0.00441053,0.00145
3.8,0.00351925,0.00386163,0.00145
4.0,0.00325319,0.00334233,0.00137
4.2,0.00290069,0.00310347,0.00122
4.4,0.00251675,0.00296126,0.00119
4.6,0.00222635,0.0028133,0.00114
4.8,0.00194563,0.00265831,0.00103
5.0,0.00187495,0.00249874,0.000883
5.5,0.00163828,0.00210289,0.000821
6.0,0.00138356,0.0017457,0.000694
6.5,0.00115242,0.00144448,0.000544
7.0,0.00095838,0.00119918,0.000481
7.5,0.00080069,0.00100256,0.000397
8.0,0.00067352,0.00084621,0.000326
8.5,0.00057148,0.00072151,0.00029
9.0,0.00048947,0.0006212,0.00026
9.5,0.00042327,0.00053993,0.000233
10.0,0.00036943,0.00047352,0.00021
11.0,0.00028876,0.0003732,0.000172
12.0,0.00023253,0.00030249,0.000143
13.0,0.00019191,0.00025088,0.00012
14.0,0.00016159,0.00021203,0.000102
15.0,0.00013831,0.00018197,8.81e-05
20.0,7.479e-05,9.903e-05,4.72e-05
