
 PEER Ground Motion Database, Time Series Search Report -- NGA-West2 -- 2020-01-02


 -- Summary of PEER Ground Motion Database Search Criteria --
Magnitude Min:, -1.0e-06
Magnitude Max:, 99999
Rrup Min (km):, -1.0e-06
Rrup Max (km):, 99999
Rjb Min (km):, -1.0e-06
Rjb Max (km):, 99999
Vs30 Min (m/sec):, -1.0e-06
Vs30 Max (m/sec):, 99999
D9-95 Min (sec):, -1.0e-06
D9-95 Max (sec):, 99999
Scale Factor Min:, -1.0e-06
Scale Factor Max:, 99999
Period Array:, 
Weight Array:, 
Record Sequence Number:, 
Earthquake Name:, IMPERIAL VALLEY
Station Name:, EL CENTRO ARRAY #1
User-Defined Maximum Number of Records:, 
Pulse:, 1
Damping Ratio:, 0.05
Scaling Method:, No Scaling
Suite Average:, Arithmetic
Single-Period-Scaling Period (sec):, 
Component:, SRSS
Fault Type:, All Types


 -- Summary of Metadata of Selected Records --
Result ID, Spectral Ordinate, Record Sequence Number, Mean Squared Error, Scale Factor, Tp-Pulse Period (sec), 5-75% Duration (sec), 5-95% Duration (sec), Arias Intensity (m/sec), Earthquake Name, Year, Station Name, Magnitude, Mechanism, Rjb (km), Rrup (km), Vs30 (m/sec), Lowest Useable Frequency (Hz), Initial-search Scale Factor, Horizontal-1 Acc. Filename, Horizontal-2 Acc. Filename, Vertical Acc. Filename
1, SRSS, 172, -, 1.0, -, 7.0, 19.5, 0.3, "Imperial Valley-06", 1979, "El Centro Array #1", 6.53, strike slip, 19.76, 21.68, 237.33, 0.1125, 1.0, RSN172_IMPVALL.H_H-E01140.AT2, RSN172_IMPVALL.H_H-E01230.AT2 , RSN172_IMPVALL.H_H-E01-UP.AT2  
2, SRSS, 173, -, 1.0, 4.515, 5.3, 12.8, 0.7, "Imperial Valley-06", 1979, "El Centro Array #10", 6.53, strike slip, 8.6, 8.6, 202.85, 0.075, 1.0, RSN173_IMPVALL.H_H-E10050.AT2, RSN173_IMPVALL.H_H-E10320.AT2 , RSN173_IMPVALL.H_H-E10-UP.AT2  
3, SRSS, 174, -, 1.0, -, 4.6, 9.0, 2.0, "Imperial Valley-06", 1979, "El Centro Array #11", 6.53, strike slip, 12.56, 12.56, 196.25, 0.1, 1.0, RSN174_IMPVALL.H_H-E11140.AT2, RSN174_IMPVALL.H_H-E11230.AT2 , RSN174_IMPVALL.H_H-E11-UP.AT2  
4, SRSS, 175, -, 1.0, -, 9.7, 19.6, 0.4, "Imperial Valley-06", 1979, "El Centro Array #12", 6.53, strike slip, 17.94, 17.94, 196.88, 0.0875, 1.0, RSN175_IMPVALL.H_H-E12140.AT2, RSN175_IMPVALL.H_H-E12230.AT2 , RSN175_IMPVALL.H_H-E12-UP.AT2  
5, SRSS, 176, -, 1.0, -, 8.9, 21.6, 0.3, "Imperial Valley-06", 1979, "El Centro Array #13", 6.53, strike slip, 21.98, 21.98, 249.92, 0.1, 1.0, RSN176_IMPVALL.H_H-E13140.AT2, RSN176_IMPVALL.H_H-E13230.AT2 , RSN176_IMPVALL.H_H-E13-UP.AT2  
6, SRSS, 197, -, 1.0, -, 2.3, 5.3, 0.0, "Imperial Valley-07", 1979, "El Centro Array #1", 5.01, strike slip, 23.76, 24.84, 237.33, 0.75, 1.0, RSN197_IMPVALL.A_A-E01140.AT2, RSN197_IMPVALL.A_A-E01230.AT2 , RSN197_IMPVALL.A_A-E01-UP.AT2  
7, SRSS, 198, -, 1.0, -, 4.9, 5.9, 0.0, "Imperial Valley-07", 1979, "El Centro Array #10", 5.01, strike slip, 10.73, 12.96, 202.85, 0.625, 1.0, RSN198_IMPVALL.A_A-E10050.AT2, RSN198_IMPVALL.A_A-E10320.AT2 , RSN198_IMPVALL.A_A-E10-UP.AT2  
8, SRSS, 199, -, 1.0, -, 1.0, 5.0, 0.1, "Imperial Valley-07", 1979, "El Centro Array #11", 5.01, strike slip, 13.61, 15.42, 196.25, 0.875, 1.0, RSN199_IMPVALL.A_A-E11140.AT2, RSN199_IMPVALL.A_A-E11230.AT2 , RSN199_IMPVALL.A_A-E11-UP.AT2  

 These records were obtained from the NGA-West2 On-Line Ground-Motion Database Tool
 These records are UNSCALED, AS RECORDED
 Filename Extension: 
   ,AT2 = Acceleration
   ,VT2 = Velocity
   ,DT2 = Displacement
 The users of the NGA-West2 databases, flatfiles, models and reports are requested to acknowledge the Pacific Earthquake Engineering Research Center (PEER) in their work and publications.

 -- Scaled Spectra used in Search & Scaling --
Period (sec),Arithmetic Mean pSa (g),Arithmetic Mean + Sigma pSa (g),Arithmetic Mean - Sigma pSa (g),RSN-172 SRSS pSa (g),RSN-173 SRSS pSa (g),RSN-174 SRSS pSa (g),RSN-175 SRSS pSa (g),RSN-176 SRSS pSa (g),RSN-197 SRSS pSa (g),RSN-198 SRSS pSa (g),RSN-199 SRSS pSa (g)
0.01,0.21776653,0.40565496,0.11690295,0.19683866,0.28959278,0.52787442,0.18706155,0.18232062,0.06930802,0.07352673,0.21560947
0.02,0.22166071,0.4092385,0.12006072,0.20191937,0.2946976,0.53289221,0.19237286,0.18493395,0.07122117,0.07912443,0.21612407
0.022,0.2253591,0.416552,0.12192169,0.20901101,0.30096097,0.54243529,0.19340527,0.18664744,0.07156064,0.08195957,0.2168926
0.025,0.2277522,0.41959188,0.12362265,0.21255885,0.30806003,0.54582563,0.19169324,0.18779557,0.07129162,0.08780452,0.2169881
0.029,0.22724253,0.41356627,0.1248631,0.20782953,0.3041268,0.53805715,0.1938459,0.19107076,0.07667467,0.08547682,0.22085861
0.03,0.228284,0.41277228,0.12625262,0.21632785,0.30735188,0.53495038,0.19349506,0.18940081,0.07720929,0.08604641,0.22149028
0.032,0.2310328,0.41653455,0.12814341,0.22235473,0.30965296,0.54107574,0.19592717,0.18834885,0.07843749,0.0913027,0.22116278
0.035,0.23436221,0.4169989,0.13171653,0.22752216,0.30130729,0.5472849,0.2003249,0.19022331,0.07717796,0.11005573,0.22100144
0.036,0.23401649,0.41313761,0.13255564,0.22443814,0.29904401,0.54265148,0.19993539,0.19309408,0.07758924,0.11356741,0.2218122
0.04,0.24490379,0.41734393,0.14371328,0.27442956,0.30033994,0.5403038,0.20598253,0.20081565,0.08197973,0.12250326,0.23287586
0.042,0.249115,0.42136879,0.14727783,0.28431838,0.30008622,0.54644923,0.20822209,0.20011238,0.08964063,0.12547232,0.23861872
0.044,0.25719619,0.42632937,0.15516144,0.29390945,0.31743039,0.54878784,0.22018729,0.20540758,0.09827785,0.13231263,0.24125651
0.045,0.25971795,0.42419001,0.15901698,0.29409548,0.32501492,0.54323807,0.22963534,0.20464749,0.10163521,0.13814917,0.24132796
0.046,0.26366141,0.42378914,0.16403757,0.29762913,0.32843813,0.54111741,0.24154029,0.20447778,0.10280591,0.15152881,0.24175384
0.048,0.27441153,0.43633019,0.17257959,0.33089684,0.33874911,0.54973675,0.25493922,0.20529176,0.10295821,0.17016591,0.24255441
0.05,0.27641662,0.43916946,0.17397874,0.35069427,0.33949422,0.54703245,0.25808443,0.20780626,0.10526749,0.16457777,0.23837608
0.055,0.29568118,0.48221506,0.18130367,0.45310604,0.39212351,0.54726206,0.27695186,0.21865762,0.10132544,0.15126806,0.22475488
0.06,0.30033828,0.49065195,0.18384332,0.42007847,0.43878866,0.55925195,0.25756937,0.23527259,0.10110149,0.14293396,0.24770978
0.065,0.31384894,0.51346837,0.19183491,0.41882069,0.48105643,0.57354766,0.26611868,0.27150253,0.09864777,0.13541189,0.26568585
0.067,0.32646518,0.53084671,0.20077268,0.4390035,0.50430371,0.5892396,0.26190386,0.28787821,0.10629978,0.14978405,0.27330876
0.07,0.34443396,0.56019382,0.21177448,0.4538513,0.56806147,0.59566654,0.2674369,0.32105038,0.11200164,0.15827408,0.27912938
0.075,0.36421442,0.60582329,0.21896177,0.48777225,0.6150538,0.61745163,0.34197533,0.34209912,0.09227833,0.14124471,0.27584019
0.08,0.36963543,0.62217832,0.21959998,0.47553883,0.54904105,0.70362906,0.36617281,0.36139451,0.09605601,0.12947479,0.27577635
0.085,0.38012006,0.62898332,0.22972192,0.4998952,0.52802113,0.70178962,0.39907655,0.40032307,0.09428021,0.13034794,0.28722674
0.09,0.40377119,0.67793579,0.24048174,0.64893827,0.51603563,0.72563495,0.39957742,0.39863572,0.10866021,0.12540874,0.30727861
0.095,0.42553269,0.74700212,0.24240637,0.74934842,0.50579188,0.80465677,0.39068052,0.3918243,0.11617442,0.11447224,0.33131296
0.1,0.41548369,0.73793598,0.23393181,0.68969043,0.50167455,0.83771368,0.37148349,0.37393349,0.11583638,0.11107013,0.32246739
0.11,0.42653343,0.76271142,0.23853159,0.54848364,0.59929654,0.91209019,0.40966468,0.41106524,0.11835636,0.10932194,0.30398884
0.12,0.44554242,0.79064894,0.25106977,0.64527561,0.58608643,0.91195383,0.4064703,0.48738314,0.10501403,0.12146612,0.30068989
0.13,0.47416368,0.83945948,0.26782853,0.6334109,0.6264032,0.96489312,0.43067308,0.59171299,0.11230442,0.12067269,0.31323905
0.133,0.46410942,0.81748382,0.26348846,0.57446719,0.6423214,0.9390682,0.43639136,0.57958011,0.11126314,0.1151369,0.31464705
0.14,0.44721546,0.8100097,0.24691268,0.50746785,0.61367027,0.9848331,0.42587673,0.50703346,0.1215342,0.10801111,0.30929692
0.15,0.46639874,0.93776932,0.231963,0.48800077,0.62775621,1.2045508,0.46451058,0.4164775,0.13157739,0.0987559,0.29956074
0.16,0.48913204,1.10853125,0.21582626,0.39901095,0.61380927,1.45758413,0.47024248,0.44105171,0.13121963,0.09578347,0.30435466
0.17,0.53408763,1.37347704,0.20768428,0.391097,0.67088896,1.79001652,0.48964659,0.38723715,0.13052149,0.11036268,0.30293062
0.18,0.55933955,1.49854827,0.20877588,0.40319642,0.67900851,1.94675876,0.4954873,0.37207834,0.13559186,0.12149394,0.32110127
0.19,0.54888426,1.30615643,0.23065685,0.38451984,0.71273911,1.71749946,0.51960654,0.44813132,0.13947644,0.14574566,0.32335571
0.2,0.54270928,1.20055631,0.24533073,0.38624944,0.67417617,1.58190125,0.53587979,0.53989156,0.14268577,0.13830191,0.34258832
0.22,0.58069661,1.35015369,0.24975568,0.38097618,0.72275417,1.75378762,0.44192737,0.69129401,0.14626776,0.09464815,0.41391761
0.24,0.6575316,1.9186079,0.22534453,0.38408776,0.68933394,2.45321809,0.45371888,0.60433689,0.1538508,0.09760291,0.42410352
0.25,0.6565412,1.86925523,0.23059791,0.41834639,0.78695394,2.39805379,0.45876817,0.49167662,0.16107917,0.10144668,0.43600487
0.26,0.64547072,1.75893904,0.23686577,0.45624463,0.81957481,2.27198693,0.44918791,0.4395042,0.16416194,0.10762731,0.45547804
0.28,0.58601967,1.35753137,0.2529732,0.42743781,0.6914538,1.80480089,0.49953419,0.48006002,0.16688541,0.12285669,0.49512852
0.29,0.60911356,1.41704213,0.2618266,0.42180393,0.74250686,1.87796145,0.4950543,0.52557196,0.16635588,0.13209766,0.51155644
0.3,0.59178414,1.31785647,0.26574098,0.40453272,0.75686333,1.74288358,0.45767522,0.53159886,0.16606726,0.1421815,0.53247063
0.32,0.55224517,1.1870818,0.2569113,0.32944943,0.78598569,1.5479461,0.45595625,0.41953717,0.1696776,0.15243308,0.55697608
0.34,0.52773565,1.16753324,0.23854131,0.30149615,0.77599978,1.51396045,0.38657239,0.35574389,0.172947,0.15012476,0.56504075
0.35,0.51800296,1.14853181,0.23362615,0.28786321,0.71350837,1.50408108,0.38160163,0.36242638,0.17432753,0.15190798,0.56830751
0.36,0.49747453,1.0619693,0.2330396,0.26870249,0.63658693,1.39668565,0.39802005,0.36631975,0.1747275,0.15233831,0.58641554
0.38,0.47912391,0.97766385,0.23480434,0.2411774,0.57848403,1.28033377,0.43287954,0.37201071,0.1735881,0.1558943,0.59862342
0.4,0.46332063,0.88979303,0.24125386,0.24636905,0.58447829,1.1548022,0.43093408,0.39211138,0.16985763,0.16468454,0.56332786
0.42,0.43853827,0.8078969,0.23804499,0.24775283,0.61526604,1.02655472,0.40318038,0.3707371,0.16316182,0.16737508,0.51427818
0.44,0.44019096,0.84433261,0.22949259,0.28095767,0.63818213,1.08835698,0.37787578,0.33874998,0.15622883,0.16319945,0.47797685
0.45,0.43845475,0.84479781,0.22756045,0.29521144,0.64768564,1.08840071,0.36658133,0.33251659,0.152588,0.16256229,0.462092
0.46,0.42677925,0.82419044,0.22099326,0.29582441,0.63427353,1.06241367,0.34066973,0.32153953,0.14915456,0.16066682,0.44969176
0.48,0.40506702,0.79876376,0.20541655,0.26652963,0.65550174,1.0084577,0.28706942,0.30055468,0.14274553,0.15020268,0.42947479
0.5,0.39357128,0.7688966,0.20145538,0.25715352,0.67384562,0.94819875,0.29393265,0.28879247,0.13572631,0.14186123,0.40905972
0.55,0.35529095,0.67239489,0.18773441,0.22579084,0.58966821,0.82336224,0.29592989,0.31135102,0.11786941,0.11396702,0.36438895
0.6,0.30464912,0.56146308,0.16530221,0.18245327,0.42020392,0.71384452,0.30210156,0.29008758,0.10684891,0.09933232,0.32232092
0.65,0.27700361,0.53405012,0.14367752,0.1943006,0.38599744,0.69307,0.26891525,0.22033366,0.09435799,0.08716784,0.27188608
0.667,0.26168556,0.4898312,0.1398019,0.19774894,0.37131623,0.62682084,0.27523078,0.19499809,0.09015382,0.08345644,0.25375937
0.7,0.2423168,0.45710927,0.12845382,0.20240247,0.34404333,0.58183122,0.27490925,0.1566003,0.08214464,0.07666417,0.219939
0.75,0.2338563,0.46857231,0.11671362,0.17579367,0.32820459,0.60844964,0.24679837,0.18524409,0.07185728,0.06716066,0.1873421
0.8,0.21282875,0.4266597,0.10616442,0.1434314,0.32102421,0.54093945,0.23833741,0.17488694,0.06241502,0.0580228,0.1635728
0.85,0.17950739,0.34275043,0.09401273,0.11833816,0.29241609,0.41098831,0.22582423,0.14043186,0.05196599,0.05032335,0.14577116
0.9,0.17267985,0.31947162,0.0933364,0.11333777,0.296764,0.35268897,0.23830418,0.16018689,0.04407852,0.04537246,0.13070597
0.95,0.16426281,0.3055152,0.08831728,0.11271659,0.3181695,0.3095096,0.21756821,0.15737464,0.03884559,0.04224447,0.11767388
1.0,0.17763681,0.34655735,0.09105228,0.12506572,0.36473485,0.33669981,0.24850122,0.16505316,0.03529896,0.03906784,0.10667292
1.1,0.18602396,0.39908221,0.08671124,0.12477071,0.4286198,0.37280702,0.25619971,0.15696655,0.02900757,0.03193236,0.08788796
1.2,0.18108443,0.43370761,0.07560756,0.11096194,0.47950662,0.38322766,0.2221697,0.13380217,0.02373286,0.02546142,0.0698131
1.3,0.17975894,0.46016537,0.07022101,0.0860382,0.50204061,0.3953975,0.21908809,0.13831939,0.02000171,0.02112819,0.05605782
1.4,0.1762747,0.45115751,0.06887344,0.08898691,0.49731027,0.37638089,0.21208653,0.15298706,0.01649806,0.01897348,0.04697441
1.5,0.1680287,0.43216783,0.06533028,0.09607382,0.46935909,0.37020137,0.19765222,0.14046112,0.01353378,0.01704149,0.03990671
1.6,0.15822078,0.40034346,0.06253085,0.10938602,0.43712272,0.34222631,0.17943636,0.13803193,0.01160972,0.01480263,0.03315055
1.7,0.15013249,0.37557749,0.06001362,0.11336526,0.40442296,0.33045302,0.16222523,0.13722151,0.00966316,0.01398618,0.02972264
1.8,0.1432373,0.36506169,0.05620125,0.11061986,0.3820528,0.33018007,0.15752549,0.12270217,0.00812281,0.01277753,0.02191765
1.9,0.13518187,0.34691761,0.05267573,0.10864219,0.36492793,0.30780958,0.1562613,0.10667651,0.00711429,0.01133661,0.01868652
2.0,0.12779009,0.3260853,0.05007986,0.10584694,0.34745527,0.27983799,0.15730327,0.0995473,0.00653647,0.00983226,0.01596121
2.2,0.11438723,0.28790504,0.04544706,0.09348972,0.31136755,0.23625123,0.14985511,0.09827288,0.00599378,0.00800329,0.01186427
2.4,0.10163756,0.2502232,0.04128391,0.08081627,0.27759436,0.19102226,0.13190492,0.10988125,0.00553732,0.00663947,0.0097046
2.5,0.09933656,0.24496437,0.0402824,0.07752346,0.26759851,0.19358759,0.12943871,0.10610088,0.0052466,0.00599714,0.00919961
2.6,0.09685002,0.24545893,0.03821383,0.0713989,0.26664535,0.1978828,0.12112304,0.09890927,0.00491695,0.00520698,0.00871685
2.8,0.09046765,0.23936766,0.03419173,0.06326475,0.25744073,0.19703721,0.10563228,0.08431493,0.00424219,0.00406982,0.00773926
3.0,0.08392569,0.225387,0.03125079,0.05575159,0.23627496,0.19211616,0.10010829,0.07352497,0.00353516,0.00334713,0.00674723
3.2,0.07766695,0.21123156,0.02855707,0.04991423,0.22019675,0.17744826,0.10212781,0.06016074,0.00290716,0.00277624,0.0058044
3.4,0.07240389,0.1948321,0.02690688,0.04661787,0.20592149,0.15519834,0.10584227,0.05595199,0.00240924,0.00232564,0.0049643
3.5,0.06931953,0.18570817,0.02587499,0.04560739,0.19849977,0.14446629,0.10150908,0.05554597,0.00220013,0.00213711,0.00459052
3.6,0.06629399,0.17638984,0.02491579,0.045922,0.19151424,0.13385689,0.09447499,0.05633417,0.00201533,0.00196943,0.00426486
3.8,0.0617725,0.16125254,0.02366376,0.05305752,0.17922437,0.1186058,0.08110518,0.05504549,0.0017097,0.0016874,0.00374452
4.0,0.05758716,0.14631289,0.02266568,0.05713537,0.16308612,0.10588214,0.07613917,0.05206985,0.00147402,0.00146271,0.00344786
4.2,0.0542072,0.13756161,0.02136076,0.05819254,0.154481,0.09536168,0.07320878,0.04665108,0.00129158,0.00128219,0.00318874
4.4,0.05108866,0.12605177,0.02070618,0.05725338,0.13981275,0.0895219,0.06914879,0.04773669,0.00114876,0.00113563,0.00295138
4.6,0.04882479,0.11815664,0.02017542,0.05399414,0.12935389,0.08659176,0.0649118,0.05096309,0.00103513,0.00101523,0.00273325
4.8,0.04658808,0.11179665,0.01941426,0.04913782,0.12037281,0.08475423,0.06288656,0.051162,0.00094299,0.00091508,0.00253314
5.0,0.04442083,0.1062276,0.0185753,0.04382899,0.11199689,0.08324353,0.06263355,0.04961587,0.00086673,0.00083072,0.00235034
5.5,0.04145764,0.10279403,0.01672019,0.03155604,0.1054154,0.08580627,0.05741764,0.04811492,0.00072199,0.00066898,0.00195984
6.0,0.03899519,0.10128028,0.01501403,0.02537014,0.10446739,0.08334087,0.05624274,0.03971967,0.00061712,0.00055365,0.00164996
6.5,0.03622639,0.09552698,0.01373801,0.02377027,0.09688022,0.07654489,0.06072799,0.02948105,0.0005355,0.00046737,0.0014038
7.0,0.0332978,0.08575261,0.01292956,0.02189266,0.0816451,0.0698517,0.06346071,0.02745582,0.00046926,0.00040054,0.00120663
7.5,0.02972932,0.07422252,0.01190787,0.02189655,0.06578954,0.06485581,0.05738439,0.02609943,0.0004142,0.00034745,0.00104716
8.0,0.02628838,0.06401443,0.01079567,0.02276844,0.0580952,0.05469981,0.0497172,0.02343687,0.00036778,0.00030494,0.00091681
8.5,0.02245773,0.05311942,0.00949463,0.02257755,0.04961799,0.04483246,0.03979043,0.02143549,0.00032829,0.00027048,0.00080912
9.0,0.01885266,0.04404992,0.00806864,0.0214637,0.041952,0.0372636,0.03101726,0.01786984,0.00029445,0.00024119,0.00071926
9.5,0.01554947,0.03627234,0.00666585,0.01773189,0.03483302,0.03023276,0.0257462,0.01472691,0.00026529,0.00021616,0.00064354
10.0,0.01305567,0.03066178,0.00555905,0.01430715,0.02996806,0.02598002,0.02040397,0.01277222,0.00024004,0.00019468,0.00057918
11.0,0.00959696,0.02310822,0.00398567,0.00975763,0.02283367,0.02018427,0.01414969,0.00901515,0.00019885,0.00016004,0.00047641
12.0,0.00729709,0.01758838,0.00302742,0.00724424,0.01721813,0.01561349,0.01078228,0.00681868,0.0001671,0.00013394,0.00039883
13.0,0.00562993,0.01360811,0.0023292,0.00518413,0.01319069,0.01207525,0.00877633,0.00521797,0.00014221,0.00011401,0.00033882
14.0,0.00450753,0.01093707,0.0018577,0.00393302,0.0105064,0.00975715,0.00720252,0.00414905,0.00012239,9.824e-05,0.00029145
15.0,0.00374854,0.00916699,0.00153285,0.00316956,0.00893961,0.00808892,0.00593047,0.00341449,0.00010638,8.553e-05,0.00025339
20.0,0.00188832,0.00464389,0.00076783,0.00157053,0.00451619,0.00423935,0.00276445,0.00176704,5.922e-05,4.804e-05,0.00014172

 -- Unscaled Horizontal & Vertical Spectra, as recorded --
Period (sec),RSN-172 Horizontal-1 pSa (g),RSN-172 Horizontal-2 pSa (g),RSN-172 Vertical pSa (g),RSN-173 Horizontal-1 pSa (g),RSN-173 Horizontal-2 pSa (g),RSN-173 Vertical pSa (g),RSN-174 Horizontal-1 pSa (g),RSN-174 Horizontal-2 pSa (g),RSN-174 Vertical pSa (g),RSN-175 Horizontal-1 pSa (g),RSN-175 Horizontal-2 pSa (g),RSN-175 Vertical pSa (g),RSN-176 Horizontal-1 pSa (g),RSN-176 Horizontal-2 pSa (g),RSN-176 Vertical pSa (g),RSN-197 Horizontal-1 pSa (g),RSN-197 Horizontal-2 pSa (g),RSN-197 Vertical pSa (g),RSN-198 Horizontal-1 pSa (g),RSN-198 Horizontal-2 pSa (g),RSN-198 Vertical pSa (g),RSN-199 Horizontal-1 pSa (g),RSN-199 Horizontal-2 pSa (g),RSN-199 Vertical pSa (g)
0.01,0.1419253,0.1363916,0.0693,0.1737809,0.2316553,0.112,0.3670098,0.3794143,0.144,0.1450315,0.1181435,0.0694,0.1181344,0.1388707,0.0503,0.06203715,0.03090297,0.0279,0.05469916,0.04913433,0.0223,0.09720724,0.1924531,0.0315
0.02,0.1442203,0.1413221,0.106,0.178467,0.2345127,0.131,0.3735619,0.3800337,0.152,0.1507832,0.1194644,0.0776,0.1226108,0.1384455,0.0686,0.06297244,0.03327052,0.048,0.05731616,0.05454845,0.0275,0.09723651,0.1930147,0.039
0.022,0.1451028,0.1504353,0.115,0.1872549,0.2356122,0.142,0.3800107,0.3870761,0.155,0.1511144,0.1207064,0.0822,0.1229498,0.1404301,0.0696,0.06311879,0.0337186,0.0639,0.06087647,0.05487647,0.0296,0.09774777,0.1936176,0.0391
0.025,0.1469737,0.1535578,0.126,0.1934683,0.2397311,0.132,0.3880766,0.3838257,0.148,0.1484555,0.1212735,0.0896,0.1258811,0.1393597,0.0694,0.06240337,0.03447194,0.0897,0.0647796,0.05927257,0.0316,0.09720597,0.193997,0.0402
0.029,0.150275,0.1435637,0.162,0.1893875,0.2379611,0.154,0.379728,0.3811983,0.16,0.1495679,0.1233113,0.106,0.1271245,0.1426443,0.0914,0.06585474,0.03927032,0.0984,0.06171117,0.05914405,0.0347,0.09955377,0.1971486,0.0451
0.03,0.1538109,0.1521182,0.172,0.1924299,0.2396579,0.149,0.3738026,0.3826794,0.158,0.1514363,0.1204466,0.113,0.1269208,0.1405837,0.0983,0.06666141,0.0389555,0.0853,0.05972034,0.06194728,0.036,0.1002207,0.197519,0.0458
0.032,0.1554422,0.1589948,0.179,0.1992985,0.2369917,0.169,0.3786247,0.3865311,0.166,0.1547309,0.1201907,0.133,0.1245136,0.1413211,0.124,0.06702907,0.0407375,0.0852,0.0580151,0.07050128,0.0408,0.09920486,0.1976648,0.0412
