
 PEER Ground Motion Database, Time Series Search Report -- NGA-West2 -- 2019-12-30


 -- Summary of PEER Ground Motion Database Search Criteria --
Magnitude Min:, 3.6
Magnitude Max:, 4.0
Rrup Min (km):, 10.0
Rrup Max (km):, 30.0
Rjb Min (km):, 10.0
Rjb Max (km):, 30.0
Vs30 Min (m/sec):, 360.0
Vs30 Max (m/sec):, 900.0
D9-95 Min (sec):, 5.0
D9-95 Max (sec):, 95.0
Scale Factor Min:, -1.0e-06
Scale Factor Max:, 99999
Period Array:, 
Weight Array:, 
Record Sequence Number:, 
Earthquake Name:, 51215576
Station Name:, 
User-Defined Maximum Number of Records:, 100
Pulse:, 1
Damping Ratio:, 0.05
Scaling Method:, No Scaling
Suite Average:, Arithmetic
Single-Period-Scaling Period (sec):, 
Component:, RotD50
Fault Type:, All Types


 -- Summary of Metadata of Selected Records --
Result ID, Spectral Ordinate, Record Sequence Number, Mean Squared Error, Scale Factor, Tp-Pulse Period (sec), 5-75% Duration (sec), 5-95% Duration (sec), Arias Intensity (m/sec), Earthquake Name, Year, Station Name, Magnitude, Mechanism, Rjb (km), Rrup (km), Vs30 (m/sec), Lowest Useable Frequency (Hz), Initial-search Scale Factor, Horizontal-1 Acc. Filename, Horizontal-2 Acc. Filename, Vertical Acc. Filename
1, RotD50, 19203, 5.9609, 1.0, -, 1.7, 7.9, 0.0, "51215576", 2009, "San Andreas Geophysical Obs._ Hollister_ CA_ USA", 3.8, strike slip, 13.61, 14.15, 643.8, 0.275, 1.0, RSN19203_51215576_BKSAOHLN.AT2, RSN19203_51215576_BKSAOHLE.AT2 , RSN19203_51215576_BKSAOHLZ.AT2  

 These records were obtained from the NGA-West2 On-Line Ground-Motion Database Tool
 These records are UNSCALED, AS RECORDED
 Filename Extension: 
   ,AT2 = Acceleration
   ,VT2 = Velocity
   ,DT2 = Displacement
 The users of the NGA-West2 databases, flatfiles, models and reports are requested to acknowledge the Pacific Earthquake Engineering Research Center (PEER) in their work and publications.

 -- Scaled Spectra used in Search & Scaling --
Period (sec),Target pSa (g),Arithmetic Mean pSa (g),Arithmetic Mean + Sigma pSa (g),Arithmetic Mean - Sigma pSa (g),RSN-19203 RotD50 pSa (g)
0.01,0.019,0.00598498,0.00598498,0.00598498,0.00598498
0.02,0.021,0.00641563,0.00641563,0.00641563,0.00641563
0.022,0.022,0.00638274,0.00638274,0.00638274,0.00638274
0.025,0.023,0.00643865,0.00643865,0.00643865,0.00643865
0.029,0.025,0.00680074,0.00680074,0.00680074,0.00680074
0.03,0.025,0.00689668,0.00689668,0.00689668,0.00689668
0.032,0.026,0.00706729,0.00706729,0.00706729,0.00706729
0.035,0.028,0.0075079,0.0075079,0.0075079,0.0075079
0.036,0.028,0.00785709,0.00785709,0.00785709,0.00785709
0.04,0.03,0.01037352,0.01037352,0.01037352,0.01037352
0.042,0.031,0.01158528,0.01158528,0.01158528,0.01158528
0.044,0.032,0.01355589,0.01355589,0.01355589,0.01355589
0.045,0.033,0.01426774,0.01426774,0.01426774,0.01426774
0.046,0.033,0.01475937,0.01475937,0.01475937,0.01475937
0.048,0.034,0.0131508,0.0131508,0.0131508,0.0131508
0.05,0.035,0.01206516,0.01206516,0.01206516,0.01206516
0.055,0.037,0.00972465,0.00972465,0.00972465,0.00972465
0.06,0.039,0.00982313,0.00982313,0.00982313,0.00982313
0.065,0.04,0.0104302,0.0104302,0.0104302,0.0104302
0.067,0.041,0.0115239,0.0115239,0.0115239,0.0115239
0.07,0.041,0.01300486,0.01300486,0.01300486,0.01300486
0.075,0.042,0.01235137,0.01235137,0.01235137,0.01235137
0.08,0.043,0.01335472,0.01335472,0.01335472,0.01335472
0.085,0.044,0.01368322,0.01368322,0.01368322,0.01368322
0.09,0.044,0.01440037,0.01440037,0.01440037,0.01440037
0.095,0.044,0.01288205,0.01288205,0.01288205,0.01288205
0.1,0.044,0.01076527,0.01076527,0.01076527,0.01076527
0.11,0.044,0.01071062,0.01071062,0.01071062,0.01071062
0.12,0.044,0.01115671,0.01115671,0.01115671,0.01115671
0.13,0.043,0.01091709,0.01091709,0.01091709,0.01091709
0.133,0.043,0.01037483,0.01037483,0.01037483,0.01037483
0.14,0.042,0.00892262,0.00892262,0.00892262,0.00892262
0.15,0.041,0.00735423,0.00735423,0.00735423,0.00735423
0.16,0.04,0.00731673,0.00731673,0.00731673,0.00731673
0.17,0.039,0.00684237,0.00684237,0.00684237,0.00684237
0.18,0.037,0.00669286,0.00669286,0.00669286,0.00669286
0.19,0.036,0.00681834,0.00681834,0.00681834,0.00681834
0.2,0.035,0.00705577,0.00705577,0.00705577,0.00705577
0.22,0.033,0.00677383,0.00677383,0.00677383,0.00677383
0.24,0.031,0.00583041,0.00583041,0.00583041,0.00583041
0.25,0.03,0.00514771,0.00514771,0.00514771,0.00514771
0.26,0.029,0.00454352,0.00454352,0.00454352,0.00454352
0.28,0.027,0.00358024,0.00358024,0.00358024,0.00358024
0.29,0.027,0.00334742,0.00334742,0.00334742,0.00334742
0.3,0.026,0.00329125,0.00329125,0.00329125,0.00329125
0.32,0.025,0.00305367,0.00305367,0.00305367,0.00305367
0.34,0.023,0.00262924,0.00262924,0.00262924,0.00262924
0.35,0.023,0.00227353,0.00227353,0.00227353,0.00227353
0.36,0.022,0.0020502,0.0020502,0.0020502,0.0020502
0.38,0.021,0.001623,0.001623,0.001623,0.001623
0.4,0.02,0.00149967,0.00149967,0.00149967,0.00149967
0.42,0.019,0.001484,0.001484,0.001484,0.001484
0.44,0.018,0.00148932,0.00148932,0.00148932,0.00148932
0.45,0.018,0.00143893,0.00143893,0.00143893,0.00143893
0.46,0.018,0.00139261,0.00139261,0.00139261,0.00139261
0.48,0.017,0.00142562,0.00142562,0.00142562,0.00142562
0.5,0.016,0.00137648,0.00137648,0.00137648,0.00137648
0.55,0.015,0.00113714,0.00113714,0.00113714,0.00113714
0.6,0.013,0.00104768,0.00104768,0.00104768,0.00104768
0.65,0.012,0.00112359,0.00112359,0.00112359,0.00112359
0.667,0.012,0.00114408,0.00114408,0.00114408,0.00114408
0.7,0.011,0.0011951,0.0011951,0.0011951,0.0011951
0.75,0.01,0.00104516,0.00104516,0.00104516,0.00104516
0.8,0.009,0.00083094,0.00083094,0.00083094,0.00083094
0.85,0.008,0.00070613,0.00070613,0.00070613,0.00070613
0.9,0.008,0.00059528,0.00059528,0.00059528,0.00059528
0.95,0.007,0.00056502,0.00056502,0.00056502,0.00056502
1.0,0.007,0.00046163,0.00046163,0.00046163,0.00046163
1.1,0.006,0.00028636,0.00028636,0.00028636,0.00028636
1.2,0.005,0.00027307,0.00027307,0.00027307,0.00027307
1.3,0.005,0.0002542,0.0002542,0.0002542,0.0002542
1.4,0.004,0.00022894,0.00022894,0.00022894,0.00022894
1.5,0.004,0.00020162,0.00020162,0.00020162,0.00020162
1.6,0.003,0.00017358,0.00017358,0.00017358,0.00017358
1.7,0.003,0.00014335,0.00014335,0.00014335,0.00014335
1.8,0.003,0.00012843,0.00012843,0.00012843,0.00012843
1.9,0.003,0.00010396,0.00010396,0.00010396,0.00010396
2.0,0.002,8.604e-05,8.604e-05,8.604e-05,8.604e-05
2.2,0.002,7.953e-05,7.953e-05,7.953e-05,7.953e-05
2.4,0.002,6.005e-05,6.005e-05,6.005e-05,6.005e-05
2.5,0.002,5.49e-05,5.49e-05,5.49e-05,5.49e-05
2.6,0.002,5.035e-05,5.035e-05,5.035e-05,5.035e-05
2.8,0.001,4.162e-05,4.162e-05,4.162e-05,4.162e-05
3.0,0.001,3.555e-05,3.555e-05,3.555e-05,3.555e-05
3.2,0.001,3.114e-05,3.114e-05,3.114e-05,3.114e-05
3.4,0.001,2.625e-05,2.625e-05,2.625e-05,2.625e-05
3.5,0.001,2.487e-05,2.487e-05,2.487e-05,2.487e-05
3.6,0.001,2.373e-05,2.373e-05,2.373e-05,2.373e-05
3.8,0.001,2.078e-05,2.078e-05,2.078e-05,2.078e-05
4.0,0.001,1.863e-05,1.863e-05,1.863e-05,1.863e-05
4.2,0.001,1.667e-05,1.667e-05,1.667e-05,1.667e-05
4.4,0.001,1.47e-05,1.47e-05,1.47e-05,1.47e-05
4.6,0.001,1.327e-05,1.327e-05,1.327e-05,1.327e-05
4.8,0.001,1.222e-05,1.222e-05,1.222e-05,1.222e-05
5.0,0.001,1.131e-05,1.131e-05,1.131e-05,1.131e-05
5.5,0.0,9.05e-06,9.05e-06,9.05e-06,9.05e-06
6.0,0.0,7.12e-06,7.12e-06,7.12e-06,7.12e-06
6.5,0.0,5.88e-06,5.88e-06,5.88e-06,5.88e-06
7.0,0.0,4.89e-06,4.89e-06,4.89e-06,4.89e-06
7.5,0.0,4.21e-06,4.21e-06,4.21e-06,4.21e-06
8.0,0.0,3.68e-06,3.68e-06,3.68e-06,3.68e-06
8.5,0.0,3.26e-06,3.26e-06,3.26e-06,3.26e-06
9.0,0.0,2.89e-06,2.89e-06,2.89e-06,2.89e-06
9.5,0.0,2.57e-06,2.57e-06,2.57e-06,2.57e-06
10.0,0.0,2.3e-06,2.3e-06,2.3e-06,2.3e-06
11.0,0.0,1.89e-06,1.89e-06,1.89e-06,1.89e-06
12.0,0.0,1.57e-06,1.57e-06,1.57e-06,1.57e-06
13.0,0.0,1.33e-06,1.33e-06,1.33e-06,1.33e-06
14.0,0.0,1.14e-06,1.14e-06,1.14e-06,1.14e-06
15.0,0.0,9.9e-07,9.9e-07,9.9e-07,9.9e-07
20.0,0.0,5.5e-07,5.5e-07,5.5e-07,5.5e-07

 -- Unscaled Horizontal & Vertical Spectra, as recorded --
Period (sec),RSN-19203 Horizontal-1 pSa (g),RSN-19203 Horizontal-2 pSa (g),RSN-19203 Vertical pSa (g)
0.01,0.00800101,0.00360028,0.00294
0.02,0.00848912,0.00343019,0.00346
0.022,0.00842685,0.00361858,0.00322
0.025,0.00851113,0.0036554,0.00317
0.029,0.00893775,0.00416499,0.00347
0.03,0.00904126,0.00430023,0.00366
0.032,0.00927441,0.00451292,0.00423
0.035,0.00964541,0.0046902,0.00486
0.036,0.01005706,0.00520328,0.00476
0.04,0.01157804,0.00836776,0.00476
0.042,0.01234647,0.01048636,0.0058
0.044,0.01459194,0.01168841,0.00517
0.045,0.01641172,0.01173288,0.00552
0.046,0.01787193,0.01113917,0.00546
0.048,0.01587167,0.00995426,0.00565
0.05,0.01411305,0.00825642,0.00558
0.055,0.01232572,0.00822871,0.00636
0.06,0.00983888,0.0101465,0.00732
0.065,0.01207845,0.00993513,0.00756
0.067,0.0127414,0.00975815,0.00697
0.07,0.01388232,0.01023869,0.00681
0.075,0.01495192,0.01042052,0.00693
0.08,0.01588754,0.0097221,0.00812
0.085,0.01701934,0.00894331,0.00782
0.09,0.01704347,0.00928267,0.00849
0.095,0.01585184,0.00813289,0.00807
0.1,0.0143868,0.00617808,0.00666
0.11,0.01420176,0.00531358,0.00711
0.12,0.01362882,0.0053832,0.00932
0.13,0.01389831,0.00570447,0.00987
0.133,0.01364845,0.00549474,0.00946
0.14,0.01111959,0.00587786,0.00852
0.15,0.00963015,0.00557725,0.00694
0.16,0.0093268,0.00488742,0.00656
0.17,0.0083061,0.00538784,0.00644
0.18,0.00788064,0.00524288,0.00541
0.19,0.00778958,0.0056534,0.00486
0.2,0.00809221,0.0059226,0.00396
0.22,0.00855365,0.00465254,0.00455
0.24,0.0078172,0.00299247,0.00415
0.25,0.00679442,0.00272931,0.00396
0.26,0.00595025,0.00240965,0.00397
0.28,0.00444148,0.00229622,0.00371
0.29,0.00417235,0.00252384,0.00341
0.3,0.00396602,0.00283823,0.00313
0.32,0.00345165,0.0030824,0.00248
0.34,0.00314828,0.00259498,0.00191
0.35,0.00291805,0.00218834,0.00163
0.36,0.00262525,0.0017297,0.00135
0.38,0.00203009,0.00154135,0.0012
0.4,0.00166667,0.00142019,0.00115
0.42,0.00172907,0.00130982,0.000981
0.44,0.00172198,0.00118417,0.000841
0.45,0.00167912,0.00118771,0.000852
0.46,0.0016812,0.00127265,0.000916
0.48,0.00172427,0.00132944,0.000991
0.5,0.0016961,0.00125922,0.000921
0.55,0.00120391,0.00109807,0.000855
0.6,0.00095787,0.00115324,0.00102
0.65,0.00111366,0.00113215,0.000725
0.667,0.00104557,0.00122693,0.000653
0.7,0.00083685,0.00124375,0.000631
0.75,0.00092144,0.00102242,0.000518
0.8,0.0008165,0.00092678,0.000428
0.85,0.00065836,0.00079466,0.000408
0.9,0.00054688,0.00067921,0.000415
0.95,0.00038758,0.00058928,0.000381
1.0,0.00031816,0.00056222,0.000383
1.1,0.00026362,0.00035003,0.000348
1.2,0.00026962,0.00030693,0.000257
1.3,0.00025541,0.00028077,0.000212
1.4,0.00022324,0.00020643,0.000168
1.5,0.00021133,0.00016994,0.000133
1.6,0.00018052,0.00015177,0.000109
1.7,0.00015649,0.000136,9.49e-05
1.8,0.00012488,0.00013165,8.72e-05
1.9,9.765e-05,0.00010729,7.9e-05
2.0,8.164e-05,9.249e-05,7.12e-05
2.2,5.76e-05,9.128e-05,5.52e-05
2.4,4.811e-05,7.0e-05,5.04e-05
2.5,4.251e-05,6.407e-05,4.86e-05
2.6,3.791e-05,5.856e-05,4.64e-05
2.8,3.27e-05,4.773e-05,4.08e-05
3.0,3.007e-05,3.936e-05,3.59e-05
3.2,2.867e-05,3.295e-05,3.24e-05
3.4,2.518e-05,2.735e-05,2.91e-05
3.5,2.388e-05,2.573e-05,2.73e-05
3.6,2.315e-05,2.429e-05,2.55e-05
3.8,2.071e-05,2.085e-05,2.2e-05
4.0,1.774e-05,1.878e-05,1.86e-05
4.2,1.635e-05,1.675e-05,1.58e-05
4.4,1.484e-05,1.464e-05,1.36e-05
4.6,1.389e-05,1.299e-05,1.2e-05
4.8,1.272e-05,1.193e-05,1.08e-05
5.0,1.135e-05,1.128e-05,9.67e-06
5.5,8.26e-06,9.76e-06,7.38e-06
6.0,6.62e-06,7.73e-06,5.77e-06
6.5,5.66e-06,6.02e-06,4.74e-06
7.0,4.86e-06,4.97e-06,4.02e-06
7.5,4.21e-06,4.32e-06,3.43e-06
8.0,3.68e-06,3.83e-06,2.95e-06
8.5,3.24e-06,3.4e-06,2.59e-06
9.0,2.88e-06,3.02e-06,2.29e-06
9.5,2.57e-06,2.67e-06,2.04e-06
10.0,2.31e-06,2.38e-06,1.83e-06
11.0,1.89e-06,1.92e-06,1.49e-06
12.0,1.58e-06,1.59e-06,1.25e-06
13.0,1.33e-06,1.34e-06,1.07e-06
14.0,1.15e-06,1.15e-06,9.2e-07
15.0,9.9e-07,1.0e-06,8.0e-07
20.0,5.5e-07,5.6e-07,4.5e-07
