
 PEER Ground Motion Database, Time Series Search Report -- NGA-West2 -- 2020-01-03


 -- Summary of PEER Ground Motion Database Search Criteria --
Magnitude Min:, -1.0e-06
Magnitude Max:, 99999
Rrup Min (km):, -1.0e-06
Rrup Max (km):, 99999
Rjb Min (km):, -1.0e-06
Rjb Max (km):, 99999
Vs30 Min (m/sec):, -1.0e-06
Vs30 Max (m/sec):, 99999
D9-95 Min (sec):, -1.0e-06
D9-95 Max (sec):, 99999
Scale Factor Min:, -1.0e-06
Scale Factor Max:, 99999
Period Array:, 0.1,1,10
Weight Array:, 1,1,1
Record Sequence Number:, 13683
Earthquake Name:, 51203773
Station Name:, Lake Herman
User-Defined Maximum Number of Records:, 
Pulse:, 1
Damping Ratio:, 0.05
Scaling Method:, Minimize MSE
Suite Average:, Arithmetic
Single-Period-Scaling Period (sec):, 
Component:, SRSS
Fault Type:, All Types


 -- Summary of Metadata of Selected Records --
Result ID, Spectral Ordinate, Record Sequence Number, Mean Squared Error, Scale Factor, Tp-Pulse Period (sec), 5-75% Duration (sec), 5-95% Duration (sec), Arias Intensity (m/sec), Earthquake Name, Year, Station Name, Magnitude, Mechanism, Rjb (km), Rrup (km), Vs30 (m/sec), Lowest Useable Frequency (Hz), Initial-search Scale Factor, Horizontal-1 Acc. Filename, Horizontal-2 Acc. Filename, Vertical Acc. Filename
1, SRSS, 13683, 0.6128, 2.9453, -, 7.0, 15.0, 0.0, "51203773", 2008, "Lake Herman", 3.96, strike slip, 12.5, 13.43, 652.29, 0.5125, 2.9453, RSN13683_51203773_NCNLHHNN.AT2, RSN13683_51203773_NCNLHHNE.AT2 , RSN13683_51203773_NCNLHHNZ.AT2  

 These records were obtained from the NGA-West2 On-Line Ground-Motion Database Tool
 These records are UNSCALED, AS RECORDED
 Filename Extension: 
   ,AT2 = Acceleration
   ,VT2 = Velocity
   ,DT2 = Displacement
 The users of the NGA-West2 databases, flatfiles, models and reports are requested to acknowledge the Pacific Earthquake Engineering Research Center (PEER) in their work and publications.

 -- Scaled Spectra used in Search & Scaling --
Period (sec),Target pSa (g),Arithmetic Mean pSa (g),Arithmetic Mean + Sigma pSa (g),Arithmetic Mean - Sigma pSa (g),RSN-13683 SRSS pSa (g)
0.01,0.023,0.03102579,0.03102579,0.03102579,0.03102579
0.02,0.026,0.03167528,0.03167528,0.03167528,0.03167528
0.022,0.026,0.03195748,0.03195748,0.03195748,0.03195748
0.025,0.028,0.03247556,0.03247556,0.03247556,0.03247556
0.029,0.03,0.03290712,0.03290712,0.03290712,0.03290712
0.03,0.031,0.0331668,0.0331668,0.0331668,0.0331668
0.032,0.032,0.03393368,0.03393368,0.03393368,0.03393368
0.035,0.034,0.03492496,0.03492496,0.03492496,0.03492496
0.036,0.034,0.03548168,0.03548168,0.03548168,0.03548168
0.04,0.037,0.03807367,0.03807367,0.03807367,0.03807367
0.042,0.038,0.039571,0.039571,0.039571,0.039571
0.044,0.039,0.0437912,0.0437912,0.0437912,0.0437912
0.045,0.04,0.04428422,0.04428422,0.04428422,0.04428422
0.046,0.04,0.04429315,0.04429315,0.04429315,0.04429315
0.048,0.041,0.04620841,0.04620841,0.04620841,0.04620841
0.05,0.042,0.05211562,0.05211562,0.05211562,0.05211562
0.055,0.045,0.0546854,0.0546854,0.0546854,0.0546854
0.06,0.047,0.0656714,0.0656714,0.0656714,0.0656714
0.065,0.049,0.08733772,0.08733772,0.08733772,0.08733772
0.067,0.049,0.09388454,0.09388454,0.09388454,0.09388454
0.07,0.05,0.10547689,0.10547689,0.10547689,0.10547689
0.075,0.051,0.11916711,0.11916711,0.11916711,0.11916711
0.08,0.052,0.12593563,0.12593563,0.12593563,0.12593563
0.085,0.053,0.11440571,0.11440571,0.11440571,0.11440571
0.09,0.054,0.10099467,0.10099467,0.10099467,0.10099467
0.095,0.054,0.08601083,0.08601083,0.08601083,0.08601083
0.1,0.054,0.06956584,0.06956584,0.06956584,0.06956584
0.11,0.054,0.04933387,0.04933387,0.04933387,0.04933387
0.12,0.053,0.04342762,0.04342762,0.04342762,0.04342762
0.13,0.052,0.04627294,0.04627294,0.04627294,0.04627294
0.133,0.052,0.04629931,0.04629931,0.04629931,0.04629931
0.14,0.051,0.04626622,0.04626622,0.04626622,0.04626622
0.15,0.05,0.04466704,0.04466704,0.04466704,0.04466704
0.16,0.048,0.04684578,0.04684578,0.04684578,0.04684578
0.17,0.047,0.04586692,0.04586692,0.04586692,0.04586692
0.18,0.046,0.05203519,0.05203519,0.05203519,0.05203519
0.19,0.044,0.05722144,0.05722144,0.05722144,0.05722144
0.2,0.043,0.05189968,0.05189968,0.05189968,0.05189968
0.22,0.04,0.04454913,0.04454913,0.04454913,0.04454913
0.24,0.038,0.04296838,0.04296838,0.04296838,0.04296838
0.25,0.036,0.03936904,0.03936904,0.03936904,0.03936904
0.26,0.035,0.03675824,0.03675824,0.03675824,0.03675824
0.28,0.033,0.03696851,0.03696851,0.03696851,0.03696851
0.29,0.032,0.03850475,0.03850475,0.03850475,0.03850475
0.3,0.032,0.03854123,0.03854123,0.03854123,0.03854123
0.32,0.03,0.04921567,0.04921567,0.04921567,0.04921567
0.34,0.028,0.05863306,0.05863306,0.05863306,0.05863306
0.35,0.028,0.06073623,0.06073623,0.06073623,0.06073623
0.36,0.027,0.06038737,0.06038737,0.06038737,0.06038737
0.38,0.026,0.06035993,0.06035993,0.06035993,0.06035993
0.4,0.024,0.06207492,0.06207492,0.06207492,0.06207492
0.42,0.023,0.06659978,0.06659978,0.06659978,0.06659978
0.44,0.022,0.07473042,0.07473042,0.07473042,0.07473042
0.45,0.022,0.07752646,0.07752646,0.07752646,0.07752646
0.46,0.021,0.08024828,0.08024828,0.08024828,0.08024828
0.48,0.02,0.08462652,0.08462652,0.08462652,0.08462652
0.5,0.02,0.08410692,0.08410692,0.08410692,0.08410692
0.55,0.018,0.06504654,0.06504654,0.06504654,0.06504654
0.6,0.016,0.05148835,0.05148835,0.05148835,0.05148835
0.65,0.015,0.04109633,0.04109633,0.04109633,0.04109633
0.667,0.014,0.03791081,0.03791081,0.03791081,0.03791081
0.7,0.013,0.03324792,0.03324792,0.03324792,0.03324792
0.75,0.012,0.02648813,0.02648813,0.02648813,0.02648813
0.8,0.011,0.02014694,0.02014694,0.02014694,0.02014694
0.85,0.01,0.01684932,0.01684932,0.01684932,0.01684932
0.9,0.01,0.01400595,0.01400595,0.01400595,0.01400595
0.95,0.009,0.01131677,0.01131677,0.01131677,0.01131677
1.0,0.008,0.00919062,0.00919062,0.00919062,0.00919062
1.1,0.007,0.00627016,0.00627016,0.00627016,0.00627016
1.2,0.006,0.0048044,0.0048044,0.0048044,0.0048044
1.3,0.006,0.00394454,0.00394454,0.00394454,0.00394454
1.4,0.005,0.00334552,0.00334552,0.00334552,0.00334552
1.5,0.004,0.00294481,0.00294481,0.00294481,0.00294481
1.6,0.004,0.00247235,0.00247235,0.00247235,0.00247235
1.7,0.004,0.00212691,0.00212691,0.00212691,0.00212691
1.8,0.003,0.00185261,0.00185261,0.00185261,0.00185261
1.9,0.003,0.00163442,0.00163442,0.00163442,0.00163442
2.0,0.003,0.00144569,0.00144569,0.00144569,0.00144569
2.2,0.002,0.00113206,0.00113206,0.00113206,0.00113206
2.4,0.002,0.00090981,0.00090981,0.00090981,0.00090981
2.5,0.002,0.00082906,0.00082906,0.00082906,0.00082906
2.6,0.002,0.00076387,0.00076387,0.00076387,0.00076387
2.8,0.002,0.00066546,0.00066546,0.00066546,0.00066546
3.0,0.001,0.00061457,0.00061457,0.00061457,0.00061457
3.2,0.001,0.00053146,0.00053146,0.00053146,0.00053146
3.4,0.001,0.00047376,0.00047376,0.00047376,0.00047376
3.5,0.001,0.00044659,0.00044659,0.00044659,0.00044659
3.6,0.001,0.00042097,0.00042097,0.00042097,0.00042097
3.8,0.001,0.00037483,0.00037483,0.00037483,0.00037483
4.0,0.001,0.00033509,0.00033509,0.00033509,0.00033509
4.2,0.001,0.00030084,0.00030084,0.00030084,0.00030084
4.4,0.001,0.00027135,0.00027135,0.00027135,0.00027135
4.6,0.001,0.00024601,0.00024601,0.00024601,0.00024601
4.8,0.001,0.0002242,0.0002242,0.0002242,0.0002242
5.0,0.001,0.00020528,0.00020528,0.00020528,0.00020528
5.5,0.0,0.00016732,0.00016732,0.00016732,0.00016732
6.0,0.0,0.00013882,0.00013882,0.00013882,0.00013882
6.5,0.0,0.000117,0.000117,0.000117,0.000117
7.0,0.0,0.00010006,0.00010006,0.00010006,0.00010006
7.5,0.0,8.666e-05,8.666e-05,8.666e-05,8.666e-05
8.0,0.0,7.585e-05,7.585e-05,7.585e-05,7.585e-05
8.5,0.0,6.697e-05,6.697e-05,6.697e-05,6.697e-05
9.0,0.0,5.958e-05,5.958e-05,5.958e-05,5.958e-05
9.5,0.0,5.334e-05,5.334e-05,5.334e-05,5.334e-05
10.0,0.0,4.805e-05,4.805e-05,4.805e-05,4.805e-05
11.0,0.0,3.958e-05,3.958e-05,3.958e-05,3.958e-05
12.0,0.0,3.319e-05,3.319e-05,3.319e-05,3.319e-05
13.0,0.0,2.824e-05,2.824e-05,2.824e-05,2.824e-05
14.0,0.0,2.432e-05,2.432e-05,2.432e-05,2.432e-05
15.0,0.0,2.117e-05,2.117e-05,2.117e-05,2.117e-05
20.0,0.0,1.188e-05,1.188e-05,1.188e-05,1.188e-05

 -- Unscaled Horizontal & Vertical Spectra, as recorded --
Period (sec),RSN-13683 Horizontal-1 pSa (g),RSN-13683 Horizontal-2 pSa (g),RSN-13683 Vertical pSa (g)
0.01,0.00880355,0.00578448,0.00383
0.02,0.00889015,0.00605164,0.0043
0.022,0.00896712,0.00610882,0.00429
0.025,0.00910286,0.00622197,0.00426
0.029,0.00936145,0.00609845,0.00483
0.03,0.00938753,0.00621931,0.00506
0.032,0.00972526,0.00617712,0.00598
0.035,0.01010718,0.00620086,0.00715
0.036,0.01018354,0.00643581,0.00732
0.04,0.01092411,0.00691126,0.00851
0.042,0.01161943,0.00674479,0.0102
0.044,0.01219969,0.00849852,0.0114
0.045,0.01234799,0.00857846,0.0119
0.046,0.01244294,0.00844555,0.0124
0.048,0.01285066,0.00899975,0.0128
0.05,0.01364862,0.01126071,0.0129
0.055,0.013643,0.01259343,0.0117
0.06,0.01576347,0.01576892,0.0124
0.065,0.02323518,0.01842341,0.0125
0.067,0.0265399,0.01765485,0.0123
0.07,0.03011778,0.01937486,0.0118
0.075,0.03410439,0.02176862,0.0117
0.08,0.03477358,0.02488007,0.0148
0.085,0.03014105,0.02450101,0.0135
0.09,0.02522562,0.02322614,0.0105
0.095,0.02160988,0.01964164,0.00887
0.1,0.0182859,0.01494936,0.0081
0.11,0.01342829,0.01001191,0.00692
0.12,0.01109655,0.0097092,0.00639
0.13,0.01098363,0.01123311,0.00586
0.133,0.01113388,0.01109689,0.00574
0.14,0.01164588,0.01054157,0.00523
0.15,0.01214375,0.00908392,0.00501
0.16,0.01304927,0.00909331,0.00508
0.17,0.01319389,0.00827234,0.00443
0.18,0.01633778,0.00672308,0.00411
0.19,0.01818515,0.00683675,0.00456
0.2,0.01588088,0.00763524,0.00548
0.22,0.01324305,0.00730734,0.00622
0.24,0.01337333,0.00582943,0.00561
0.25,0.01221929,0.00541798,0.00515
0.26,0.01093876,0.00600817,0.00451
0.28,0.01005419,0.00751364,0.00482
0.29,0.01047947,0.00781586,0.0057
0.3,0.01068164,0.00755868,0.00583
0.32,0.01431699,0.00861616,0.00536
0.34,0.01689462,0.01052923,0.00447
0.35,0.01760047,0.01074506,0.00438
0.36,0.01802963,0.00976189,0.004
0.38,0.01902616,0.00761481,0.00312
0.4,0.01964608,0.00762996,0.00295
0.42,0.02099846,0.00838844,0.00276
0.44,0.02372264,0.00899997,0.00256
0.45,0.02485747,0.00865698,0.00279
0.46,0.02581787,0.00870501,0.00307
0.48,0.02715043,0.00940243,0.00291
0.5,0.02702826,0.0092151,0.00228
0.55,0.0199495,0.00947352,0.0027
0.6,0.01422746,0.01015758,0.00144
0.65,0.01039647,0.00930594,0.00122
0.667,0.00926356,0.00893653,0.00131
0.7,0.00785242,0.00810963,0.0014
0.75,0.00600159,0.00669773,0.00128
0.8,0.00441205,0.00522718,0.00107
0.85,0.00367332,0.00438554,0.000814
0.9,0.00306979,0.0036317,0.00088
0.95,0.00241386,0.00298937,0.00073
1.0,0.00192794,0.00245356,0.000795
1.1,0.00133221,0.00166048,0.000764
1.2,0.00103275,0.00126262,0.000588
1.3,0.00086837,0.00101957,0.000491
1.4,0.00073057,0.00086976,0.000449
1.5,0.00064937,0.00076024,0.000432
1.6,0.00051543,0.00066253,0.000315
1.7,0.00044385,0.00056962,0.000241
1.8,0.00039487,0.00048961,0.0002
1.9,0.00036104,0.00042141,0.000186
2.0,0.0003309,0.00036254,0.000178
2.2,0.00027807,0.00026534,0.000173
2.4,0.00022649,0.00021005,0.000104
2.5,0.00020532,0.00019255,9.35e-05
2.6,0.00018751,0.00017917,8.07e-05
2.8,0.00015967,0.00015985,6.58e-05
3.0,0.00013976,0.00015494,5.11e-05
3.2,0.00012388,0.0001312,3.84e-05
3.4,0.0001098,0.00011755,3.33e-05
3.5,0.00010342,0.00011088,3.09e-05
3.6,9.753e-05,0.00010448,2.84e-05
3.8,8.721e-05,9.269e-05,2.43e-05
4.0,7.847e-05,8.237e-05,2.12e-05
4.2,7.094e-05,7.348e-05,1.89e-05
4.4,6.437e-05,6.591e-05,1.69e-05
4.6,5.861e-05,5.951e-05,1.54e-05
4.8,5.358e-05,5.407e-05,1.43e-05
5.0,4.918e-05,4.939e-05,1.33e-05
5.5,4.036e-05,3.998e-05,1.1e-05
6.0,3.379e-05,3.286e-05,9.14e-06
6.5,2.873e-05,2.743e-05,7.72e-06
7.0,2.473e-05,2.329e-05,6.64e-06
7.5,2.152e-05,2.007e-05,5.77e-06
8.0,1.889e-05,1.75e-05,5.06e-06
8.5,1.672e-05,1.541e-05,4.47e-06
9.0,1.491e-05,1.367e-05,3.98e-06
9.5,1.338e-05,1.221e-05,3.57e-06
10.0,1.207e-05,1.098e-05,3.22e-06
11.0,9.97e-06,9.02e-06,2.66e-06
12.0,8.37e-06,7.54e-06,2.23e-06
13.0,7.13e-06,6.41e-06,1.9e-06
14.0,6.14e-06,5.52e-06,1.63e-06
15.0,5.35e-06,4.8e-06,1.42e-06
20.0,3.01e-06,2.69e-06,8.0e-07
